{"type":"FeatureCollection","name":"HMAS Albatross ANEF (Defence)","attribution":"Department of Defence, Defence Airfields ANEF, CC BY 3.0 AU (data.gov.au)","features":[{"type":"Feature","properties":{"base":"HMAS Albatross","band":"20-25","bandMin":20},"geometry":{"type":"Polygon","coordinates":[[[150.56453,-34.92728],[150.5652,-34.92452],[150.56342,-34.92344],[150.56011,-34.91955],[150.55793,-34.91832],[150.55542,-34.91751],[150.55162,-34.91733],[150.54614,-34.91918],[150.54313,-34.92082],[150.54042,-34.92362],[150.5315,-34.93036],[150.52431,-34.93674],[150.51568,-34.94352],[150.51287,-34.9472],[150.51352,-34.95193],[150.51421,-34.95375],[150.51776,-34.95842],[150.5221,-34.96163],[150.5322,-34.96309],[150.54548,-34.96414],[150.54644,-34.96377],[150.55343,-34.96367],[150.55884,-34.96224],[150.56092,-34.96095],[150.56377,-34.95814],[150.56671,-34.95317],[150.56922,-34.95069],[150.56522,-34.94617],[150.56249,-34.94429],[150.56039,-34.94164],[150.55972,-34.94006],[150.55994,-34.93824],[150.56162,-34.93566],[150.56444,-34.92749],[150.56453,-34.92728]],[[150.56016,-34.92751],[150.56114,-34.92742],[150.56144,-34.92806],[150.55913,-34.93337],[150.55248,-34.94182],[150.55183,-34.94434],[150.55218,-34.94513],[150.55331,-34.94586],[150.55991,-34.94746],[150.56349,-34.94979],[150.56378,-34.95032],[150.56068,-34.95373],[150.5521,-34.95434],[150.54832,-34.95382],[150.54702,-34.95474],[150.54667,-34.95607],[150.541,-34.95495],[150.54089,-34.95559],[150.53716,-34.95624],[150.53491,-34.95734],[150.53268,-34.95755],[150.53019,-34.95619],[150.52673,-34.95609],[150.5262,-34.95503],[150.52629,-34.95347],[150.52515,-34.95188],[150.52306,-34.951],[150.52021,-34.95076],[150.51946,-34.94994],[150.51853,-34.94757],[150.5189,-34.94706],[150.5213,-34.94617],[150.52862,-34.94503],[150.52895,-34.94465],[150.5318,-34.94467],[150.53313,-34.94396],[150.53544,-34.94168],[150.53754,-34.93779],[150.53714,-34.93563],[150.53903,-34.93604],[150.54348,-34.93541],[150.54768,-34.93304],[150.55357,-34.92796],[150.55512,-34.92755],[150.55998,-34.92754],[150.56016,-34.92751]]]}},{"type":"Feature","properties":{"base":"HMAS Albatross","band":"25-30","bandMin":25},"geometry":{"type":"Polygon","coordinates":[[[150.56145,-34.92766],[150.55416,-34.92771],[150.54768,-34.93304],[150.54412,-34.93515],[150.54125,-34.93594],[150.53714,-34.93563],[150.53754,-34.93779],[150.53544,-34.94168],[150.53313,-34.94396],[150.5318,-34.94467],[150.52895,-34.94465],[150.52862,-34.94503],[150.5213,-34.94617],[150.5189,-34.94706],[150.51853,-34.94757],[150.51946,-34.94994],[150.52021,-34.95076],[150.52306,-34.951],[150.52515,-34.95188],[150.52629,-34.95347],[150.5262,-34.95503],[150.52673,-34.95609],[150.53019,-34.95619],[150.53268,-34.95755],[150.53491,-34.95734],[150.53716,-34.95624],[150.54089,-34.95559],[150.541,-34.95495],[150.54667,-34.95607],[150.54702,-34.95474],[150.54832,-34.95382],[150.5521,-34.95434],[150.56068,-34.95373],[150.56374,-34.95005],[150.56013,-34.94754],[150.55299,-34.94571],[150.55207,-34.94498],[150.55182,-34.94408],[150.55248,-34.94182],[150.55913,-34.93337],[150.56148,-34.92784],[150.56145,-34.92766]],[[150.54763,-34.9359],[150.55145,-34.9336],[150.55563,-34.93176],[150.55691,-34.93166],[150.55322,-34.93797],[150.54954,-34.94116],[150.5477,-34.94504],[150.5479,-34.94643],[150.54883,-34.94711],[150.55587,-34.94917],[150.55682,-34.94965],[150.55669,-34.95017],[150.55347,-34.95118],[150.54774,-34.95182],[150.54708,-34.95277],[150.54266,-34.95238],[150.53952,-34.95137],[150.53283,-34.95245],[150.53212,-34.9521],[150.53211,-34.95072],[150.53164,-34.95006],[150.52847,-34.94998],[150.52565,-34.94909],[150.52453,-34.9477],[150.52538,-34.94745],[150.52572,-34.94675],[150.5289,-34.94631],[150.533,-34.94677],[150.53687,-34.94448],[150.53838,-34.94407],[150.53856,-34.94355],[150.53803,-34.94301],[150.53923,-34.9398],[150.53981,-34.9394],[150.53838,-34.93657],[150.54183,-34.93771],[150.54567,-34.93653],[150.54628,-34.93728],[150.54758,-34.93597],[150.54763,-34.9359]]]}},{"type":"Feature","properties":{"base":"HMAS Albatross","band":"30-35","bandMin":30},"geometry":{"type":"Polygon","coordinates":[[[150.53562,-34.95451],[150.53312,-34.95331],[150.53184,-34.95489],[150.53303,-34.95636],[150.53697,-34.95525],[150.5358,-34.95471],[150.53562,-34.95451]],[[150.53282,-34.95543],[150.53309,-34.95452],[150.53596,-34.95523],[150.53306,-34.95562],[150.53282,-34.95543]]]}},{"type":"Feature","properties":{"base":"HMAS Albatross","band":"30-35","bandMin":30},"geometry":{"type":"Polygon","coordinates":[[[150.55531,-34.93457],[150.5569,-34.93163],[150.55563,-34.93176],[150.55113,-34.93376],[150.54791,-34.93556],[150.54628,-34.93728],[150.54567,-34.93653],[150.54151,-34.93772],[150.53838,-34.93657],[150.53981,-34.9394],[150.53923,-34.9398],[150.53803,-34.94301],[150.53856,-34.94355],[150.53838,-34.94407],[150.53687,-34.94448],[150.533,-34.94677],[150.5289,-34.94631],[150.52572,-34.94675],[150.52538,-34.94745],[150.52453,-34.9477],[150.52565,-34.94909],[150.52847,-34.94998],[150.53164,-34.95006],[150.53252,-34.95242],[150.53952,-34.95137],[150.54266,-34.95238],[150.54708,-34.95277],[150.54742,-34.95194],[150.54838,-34.95166],[150.5557,-34.95067],[150.55669,-34.95017],[150.55682,-34.94965],[150.55104,-34.94747],[150.54883,-34.94711],[150.5479,-34.94643],[150.5477,-34.94504],[150.54954,-34.94116],[150.55237,-34.93898],[150.55522,-34.93471],[150.55531,-34.93457]],[[150.54877,-34.93723],[150.54915,-34.93652],[150.55174,-34.93474],[150.55332,-34.9355],[150.55247,-34.93757],[150.54781,-34.9406],[150.54761,-34.94243],[150.54543,-34.94428],[150.5455,-34.9448],[150.54256,-34.94491],[150.54017,-34.94723],[150.54057,-34.94788],[150.54183,-34.94811],[150.54551,-34.94786],[150.54757,-34.94704],[150.54786,-34.94793],[150.55069,-34.94864],[150.55122,-34.94954],[150.55065,-34.95011],[150.54778,-34.95047],[150.54712,-34.95143],[150.543,-34.95151],[150.5401,-34.95088],[150.5427,-34.95041],[150.54273,-34.95003],[150.54179,-34.9496],[150.54021,-34.94952],[150.53638,-34.95054],[150.5342,-34.94911],[150.5259,-34.94825],[150.52634,-34.94725],[150.53484,-34.94765],[150.53971,-34.94513],[150.54123,-34.9436],[150.54089,-34.94177],[150.53976,-34.94175],[150.54119,-34.93943],[150.53949,-34.93757],[150.54179,-34.93893],[150.54436,-34.93782],[150.54368,-34.93923],[150.54557,-34.93955],[150.54857,-34.93749],[150.54877,-34.93723]]]}},{"type":"Feature","properties":{"base":"HMAS Albatross","band":"35+","bandMin":35},"geometry":{"type":"Polygon","coordinates":[[[150.53528,-34.9555],[150.53596,-34.95523],[150.53309,-34.95452],[150.5327,-34.95491],[150.53306,-34.95562],[150.53496,-34.95552],[150.53528,-34.9555]]]}},{"type":"Feature","properties":{"base":"HMAS Albatross","band":"35+","bandMin":35},"geometry":{"type":"Polygon","coordinates":[[[150.55002,-34.93934],[150.55041,-34.93857],[150.55247,-34.93757],[150.55248,-34.93679],[150.55338,-34.93576],[150.55237,-34.93475],[150.55174,-34.93474],[150.54915,-34.93652],[150.5478,-34.93826],[150.54589,-34.93953],[150.54368,-34.93923],[150.54436,-34.93782],[150.54179,-34.93893],[150.53949,-34.93757],[150.54119,-34.93943],[150.53976,-34.94175],[150.54089,-34.94177],[150.54123,-34.9436],[150.53971,-34.94513],[150.53484,-34.94765],[150.52634,-34.94725],[150.5259,-34.94825],[150.5342,-34.94911],[150.53638,-34.95054],[150.54148,-34.94954],[150.54286,-34.95016],[150.5401,-34.95088],[150.543,-34.95151],[150.54712,-34.95143],[150.54769,-34.95051],[150.55032,-34.95027],[150.55113,-34.94928],[150.55034,-34.94848],[150.54786,-34.94793],[150.54757,-34.94704],[150.54551,-34.94786],[150.54152,-34.94811],[150.54042,-34.94776],[150.54023,-34.94697],[150.54256,-34.94491],[150.5455,-34.9448],[150.54543,-34.94428],[150.54761,-34.94243],[150.54781,-34.9406],[150.5498,-34.9396],[150.55002,-34.93934]]]}}]}