{"type":"FeatureCollection","name":"Oakey Army Aviation Centre ANEF (Defence)","attribution":"Department of Defence, Defence Airfields ANEF, CC BY 3.0 AU (data.gov.au)","features":[{"type":"Feature","properties":{"base":"Oakey Army Aviation Centre","band":"20-25","bandMin":20},"geometry":{"type":"Polygon","coordinates":[[[151.73639,-27.39391],[151.73088,-27.38955],[151.72276,-27.38164],[151.72102,-27.38088],[151.72045,-27.3813],[151.72053,-27.38262],[151.72323,-27.38998],[151.7226,-27.39361],[151.724,-27.3957],[151.72662,-27.39782],[151.7271,-27.40175],[151.72508,-27.40208],[151.72314,-27.40096],[151.71611,-27.40217],[151.70965,-27.40199],[151.69911,-27.40384],[151.69851,-27.40436],[151.70037,-27.40699],[151.70315,-27.4088],[151.70633,-27.41186],[151.70952,-27.41129],[151.71425,-27.41206],[151.71456,-27.41423],[151.71366,-27.41676],[151.71417,-27.41755],[151.71781,-27.41749],[151.72037,-27.41594],[151.72197,-27.41559],[151.72501,-27.4166],[151.7282,-27.41904],[151.73699,-27.41877],[151.74686,-27.4226],[151.75386,-27.42727],[151.75766,-27.42891],[151.75801,-27.4282],[151.75694,-27.42309],[151.75735,-27.41954],[151.75931,-27.41748],[151.76259,-27.41623],[151.76595,-27.41384],[151.76574,-27.41175],[151.76251,-27.41037],[151.76052,-27.40798],[151.75464,-27.40722],[151.75385,-27.4059],[151.75623,-27.40461],[151.75452,-27.40369],[151.74977,-27.40249],[151.74808,-27.40119],[151.74761,-27.39932],[151.74999,-27.39645],[151.75189,-27.39308],[151.74188,-27.39632],[151.73986,-27.396],[151.73664,-27.3941],[151.73639,-27.39391]],[[151.73358,-27.4021],[151.73341,-27.40016],[151.73055,-27.395],[151.73053,-27.39404],[151.73581,-27.39895],[151.73749,-27.39969],[151.73982,-27.39971],[151.74367,-27.39796],[151.74199,-27.39978],[151.7432,-27.3998],[151.74237,-27.40083],[151.74531,-27.40269],[151.7496,-27.40377],[151.74564,-27.40389],[151.74497,-27.40451],[151.74591,-27.40615],[151.75101,-27.40822],[151.7529,-27.40981],[151.7523,-27.41059],[151.75364,-27.41217],[151.753,-27.41354],[151.75005,-27.41659],[151.75029,-27.41945],[151.74724,-27.41814],[151.74082,-27.41649],[151.73703,-27.41446],[151.73001,-27.41465],[151.72708,-27.41406],[151.72366,-27.41268],[151.72183,-27.41295],[151.7221,-27.4124],[151.72125,-27.41225],[151.72068,-27.4115],[151.71022,-27.40707],[151.7107,-27.40577],[151.71127,-27.40551],[151.71666,-27.40465],[151.72106,-27.40413],[151.72661,-27.40461],[151.73188,-27.40423],[151.73309,-27.40362],[151.73357,-27.40231],[151.73358,-27.4021]]]}},{"type":"Feature","properties":{"base":"Oakey Army Aviation Centre","band":"25-30","bandMin":25},"geometry":{"type":"Polygon","coordinates":[[[151.73837,-27.39982],[151.73604,-27.39912],[151.73053,-27.39404],[151.73055,-27.395],[151.73352,-27.4005],[151.73348,-27.40284],[151.73276,-27.4039],[151.72661,-27.40461],[151.72106,-27.40413],[151.71666,-27.40465],[151.71127,-27.40551],[151.7107,-27.40577],[151.71022,-27.40707],[151.72068,-27.4115],[151.72125,-27.41225],[151.7221,-27.4124],[151.72183,-27.41295],[151.72366,-27.41268],[151.72708,-27.41406],[151.73001,-27.41465],[151.73703,-27.41446],[151.74082,-27.41649],[151.74724,-27.41814],[151.75015,-27.41955],[151.75005,-27.41659],[151.753,-27.41354],[151.75364,-27.41217],[151.7523,-27.41059],[151.7529,-27.40981],[151.75101,-27.40822],[151.74591,-27.40615],[151.74497,-27.40451],[151.74564,-27.40389],[151.7496,-27.40377],[151.74531,-27.40269],[151.74237,-27.40083],[151.7432,-27.3998],[151.74199,-27.39978],[151.74367,-27.39796],[151.74042,-27.39951],[151.73867,-27.39983],[151.73837,-27.39982]],[[151.73877,-27.4008],[151.73983,-27.40051],[151.73945,-27.40133],[151.74243,-27.4028],[151.74557,-27.40321],[151.74273,-27.40306],[151.74224,-27.40344],[151.74344,-27.40685],[151.74509,-27.40817],[151.74868,-27.40925],[151.74785,-27.40951],[151.74915,-27.41134],[151.74898,-27.41448],[151.74814,-27.41596],[151.7455,-27.41658],[151.74286,-27.41573],[151.7394,-27.41352],[151.72712,-27.41249],[151.72389,-27.41154],[151.72168,-27.41031],[151.72245,-27.40954],[151.72201,-27.40874],[151.72308,-27.40797],[151.72248,-27.40743],[151.72571,-27.40677],[151.72627,-27.40644],[151.72581,-27.40617],[151.72631,-27.40605],[151.7295,-27.40609],[151.7304,-27.40546],[151.73393,-27.40539],[151.73469,-27.40468],[151.73465,-27.40364],[151.73572,-27.40146],[151.73866,-27.40083],[151.73877,-27.4008]]]}},{"type":"Feature","properties":{"base":"Oakey Army Aviation Centre","band":"30+","bandMin":30},"geometry":{"type":"Polygon","coordinates":[[[151.73961,-27.40081],[151.73983,-27.40051],[151.73603,-27.40122],[151.73465,-27.40364],[151.73469,-27.40468],[151.73363,-27.40551],[151.73186,-27.4053],[151.7304,-27.40546],[151.7295,-27.40609],[151.72631,-27.40605],[151.72581,-27.40617],[151.72627,-27.40644],[151.72571,-27.40677],[151.72248,-27.40743],[151.72308,-27.40797],[151.72201,-27.40874],[151.72245,-27.40954],[151.72168,-27.41031],[151.72389,-27.41154],[151.72712,-27.41249],[151.7319,-27.41318],[151.73917,-27.41346],[151.74286,-27.41573],[151.7455,-27.41658],[151.74726,-27.41647],[151.74755,-27.41595],[151.74814,-27.41596],[151.74898,-27.41448],[151.74915,-27.41134],[151.74785,-27.40951],[151.74868,-27.40925],[151.74509,-27.40817],[151.74308,-27.40632],[151.74226,-27.40318],[151.74557,-27.40321],[151.74243,-27.4028],[151.73953,-27.4014],[151.73953,-27.40094],[151.73961,-27.40081]]]}}]}