{"type":"FeatureCollection","name":"RAAF Base Williamtown ANEF (Defence)","attribution":"Department of Defence, Defence Airfields ANEF, CC BY 3.0 AU (data.gov.au)","features":[{"type":"Feature","properties":{"base":"RAAF Base Williamtown","band":"20-25","bandMin":20},"geometry":{"type":"Polygon","coordinates":[[[151.83509,-32.65133],[151.83343,-32.65029],[151.83112,-32.65055],[151.82983,-32.65171],[151.82955,-32.65318],[151.83275,-32.65808],[151.83857,-32.66447],[151.8449,-32.67489],[151.85821,-32.69258],[151.85964,-32.69385],[151.86336,-32.69557],[151.86738,-32.6961],[151.87152,-32.69543],[151.87251,-32.69374],[151.87197,-32.69078],[151.86691,-32.68784],[151.86355,-32.685],[151.85334,-32.67222],[151.84804,-32.66752],[151.83514,-32.65139],[151.83509,-32.65133]],[[151.83133,-32.65299],[151.83077,-32.65235],[151.83143,-32.65151],[151.83316,-32.65153],[151.8331,-32.653],[151.83138,-32.65302],[151.83133,-32.65299]]]}},{"type":"Feature","properties":{"base":"RAAF Base Williamtown","band":"20-25","bandMin":20},"geometry":{"type":"Polygon","coordinates":[[[151.94323,-32.71698],[151.94201,-32.71545],[151.93856,-32.71475],[151.93106,-32.71574],[151.92413,-32.71768],[151.89746,-32.73167],[151.89351,-32.73584],[151.89125,-32.73994],[151.89031,-32.74358],[151.89003,-32.74866],[151.89041,-32.7512],[151.89155,-32.75374],[151.89546,-32.75801],[151.90341,-32.76287],[151.90738,-32.76614],[151.90879,-32.76915],[151.90827,-32.77334],[151.90901,-32.77618],[151.91323,-32.77981],[151.9153,-32.78101],[151.91702,-32.78153],[151.91778,-32.78088],[151.91888,-32.77085],[151.9206,-32.76541],[151.92244,-32.76234],[151.92677,-32.75659],[151.93846,-32.74738],[151.94065,-32.74445],[151.94094,-32.74275],[151.94043,-32.74105],[151.93417,-32.73382],[151.93301,-32.73169],[151.93266,-32.72958],[151.93317,-32.72789],[151.93439,-32.72617],[151.94044,-32.72143],[151.94277,-32.71867],[151.94321,-32.7174],[151.94323,-32.71698]],[[151.91425,-32.77212],[151.91195,-32.77148],[151.91082,-32.76682],[151.90961,-32.76489],[151.90222,-32.75722],[151.89895,-32.75296],[151.8977,-32.74872],[151.89813,-32.74281],[151.9002,-32.73775],[151.904,-32.7333],[151.91248,-32.72848],[151.92059,-32.72476],[151.92347,-32.72404],[151.92422,-32.72464],[151.92639,-32.72945],[151.9281,-32.73546],[151.93035,-32.74055],[151.93053,-32.74393],[151.929,-32.7473],[151.92075,-32.75869],[151.91771,-32.76454],[151.91512,-32.77141],[151.91425,-32.77212],[151.91425,-32.77212]]]}},{"type":"Feature","properties":{"base":"RAAF Base Williamtown","band":"20-25","bandMin":20},"geometry":{"type":"Polygon","coordinates":[[[151.75217,-32.73023],[151.75234,-32.72888],[151.751,-32.72769],[151.74904,-32.72746],[151.74817,-32.72787],[151.74842,-32.73031],[151.74944,-32.7304],[151.7506,-32.73127],[151.74963,-32.73244],[151.74796,-32.73302],[151.74901,-32.73507],[151.75811,-32.74361],[151.76191,-32.74788],[151.77043,-32.75557],[151.77949,-32.76285],[151.7842,-32.76797],[151.78446,-32.77051],[151.7799,-32.77638],[151.77893,-32.77933],[151.77901,-32.78145],[151.77963,-32.78248],[151.78382,-32.78617],[151.79101,-32.79848],[151.80023,-32.80913],[151.80212,-32.81015],[151.81157,-32.81775],[151.82336,-32.82637],[151.82474,-32.82797],[151.83739,-32.83287],[151.85664,-32.83819],[151.86212,-32.83794],[151.86618,-32.83606],[151.86878,-32.83569],[151.87224,-32.83619],[151.87766,-32.83818],[151.88344,-32.8393],[151.8886,-32.84178],[151.90844,-32.85314],[151.92127,-32.85884],[151.92357,-32.85908],[151.92005,-32.85335],[151.91992,-32.85208],[151.9267,-32.84791],[151.92736,-32.84707],[151.92689,-32.84622],[151.9112,-32.83932],[151.90695,-32.83633],[151.90464,-32.83335],[151.90456,-32.83208],[151.90547,-32.83048],[151.91128,-32.82637],[151.91271,-32.82476],[151.91351,-32.82328],[151.91318,-32.82182],[151.91136,-32.82025],[151.89754,-32.81891],[151.89179,-32.81753],[151.8872,-32.81561],[151.88356,-32.81305],[151.88181,-32.81031],[151.88017,-32.801],[151.87791,-32.79421],[151.87485,-32.78919],[151.86974,-32.78294],[151.86794,-32.78228],[151.85888,-32.77583],[151.84516,-32.76717],[151.84402,-32.76592],[151.83142,-32.76055],[151.82548,-32.75703],[151.82229,-32.75362],[151.8197,-32.74717],[151.81784,-32.7446],[151.80867,-32.73767],[151.80407,-32.7369],[151.796,-32.73743],[151.79282,-32.73716],[151.78887,-32.7418],[151.78646,-32.74812],[151.78548,-32.74884],[151.78432,-32.74889],[151.78203,-32.74808],[151.77746,-32.74518],[151.76865,-32.73758],[151.76261,-32.73604],[151.75225,-32.73045],[151.75217,-32.73023]],[[151.85413,-32.83152],[151.8501,-32.83085],[151.84333,-32.82857],[151.83119,-32.82178],[151.81921,-32.81207],[151.80613,-32.80327],[151.79638,-32.79472],[151.79296,-32.79006],[151.79145,-32.7858],[151.79154,-32.78115],[151.79264,-32.77651],[151.79265,-32.7727],[151.79211,-32.771],[151.78968,-32.76802],[151.77409,-32.75371],[151.77104,-32.74966],[151.77019,-32.74711],[151.76842,-32.74541],[151.76882,-32.74485],[151.77026,-32.74495],[151.78654,-32.75571],[151.79226,-32.75856],[151.79398,-32.75884],[151.79572,-32.75845],[151.79921,-32.75617],[151.80152,-32.75532],[151.80612,-32.75644],[151.80923,-32.75891],[151.81173,-32.76485],[151.81405,-32.76684],[151.81817,-32.76829],[151.82898,-32.77063],[151.83644,-32.77314],[151.84797,-32.78269],[151.85895,-32.78897],[151.86224,-32.79026],[151.86656,-32.7959],[151.86867,-32.80005],[151.8696,-32.80428],[151.86946,-32.80893],[151.87028,-32.81063],[151.87628,-32.81618],[151.88341,-32.82067],[151.88995,-32.82561],[151.89317,-32.83071],[151.89924,-32.83781],[151.90135,-32.84283],[151.90013,-32.84284],[151.89783,-32.84192],[151.87319,-32.82957],[151.86802,-32.82751],[151.86514,-32.8276],[151.8565,-32.83132],[151.85471,-32.83154],[151.85413,-32.83152]]]}},{"type":"Feature","properties":{"base":"RAAF Base Williamtown","band":"25-30","bandMin":25},"geometry":{"type":"Polygon","coordinates":[[[151.92673,-32.73046],[151.92405,-32.72436],[151.92319,-32.72404],[151.92087,-32.72465],[151.91132,-32.72907],[151.904,-32.7333],[151.90076,-32.73691],[151.89859,-32.74112],[151.89767,-32.74703],[151.89779,-32.74957],[151.89854,-32.75211],[151.90147,-32.75637],[151.90961,-32.76489],[151.91082,-32.76682],[151.91153,-32.77083],[151.91231,-32.77161],[151.91425,-32.77212],[151.91507,-32.7715],[151.91771,-32.76454],[151.92075,-32.75869],[151.929,-32.7473],[151.9303,-32.74478],[151.93046,-32.74097],[151.9281,-32.73546],[151.92685,-32.73101],[151.92673,-32.73046]],[[151.91402,-32.76662],[151.90386,-32.75319],[151.90265,-32.74961],[151.90255,-32.74623],[151.90393,-32.74032],[151.90737,-32.73539],[151.90953,-32.7339],[151.91474,-32.73158],[151.91792,-32.73079],[151.92107,-32.73213],[151.9226,-32.73414],[151.92374,-32.73965],[151.92381,-32.74388],[151.92184,-32.75062],[151.91562,-32.76312],[151.91461,-32.76623],[151.91403,-32.76663],[151.91402,-32.76662]]]}},{"type":"Feature","properties":{"base":"RAAF Base Williamtown","band":"25-30","bandMin":25},"geometry":{"type":"Polygon","coordinates":[[[151.7937,-32.75883],[151.79111,-32.75816],[151.78768,-32.7564],[151.77026,-32.74495],[151.76912,-32.74466],[151.76842,-32.74541],[151.77019,-32.74711],[151.77104,-32.74966],[151.77428,-32.75392],[151.78968,-32.76802],[151.79211,-32.771],[151.79265,-32.7727],[151.79264,-32.77651],[151.79154,-32.78115],[151.79145,-32.7858],[151.7925,-32.78919],[151.79523,-32.79344],[151.80613,-32.80327],[151.81921,-32.81207],[151.83105,-32.82169],[151.84321,-32.82852],[151.85125,-32.83114],[151.85586,-32.83145],[151.86514,-32.8276],[151.8686,-32.82767],[151.87319,-32.82957],[151.89783,-32.84192],[151.90013,-32.84284],[151.90135,-32.84283],[151.89924,-32.83781],[151.89317,-32.83071],[151.88995,-32.82561],[151.88341,-32.82067],[151.87628,-32.81618],[151.87028,-32.81063],[151.86946,-32.80893],[151.8696,-32.80428],[151.86867,-32.80005],[151.86656,-32.7959],[151.86224,-32.79026],[151.85895,-32.78897],[151.84797,-32.78269],[151.83644,-32.77314],[151.82898,-32.77063],[151.81817,-32.76829],[151.81405,-32.76684],[151.81173,-32.76485],[151.80923,-32.75891],[151.80612,-32.75644],[151.80152,-32.75532],[151.79921,-32.75617],[151.79572,-32.75845],[151.79398,-32.75884],[151.7937,-32.75883]],[[151.7994,-32.785],[151.79844,-32.7841],[151.79785,-32.78163],[151.79862,-32.77403],[151.79012,-32.76401],[151.78962,-32.7623],[151.79163,-32.76279],[151.79878,-32.76624],[151.80425,-32.76689],[151.81052,-32.77222],[151.81652,-32.77556],[151.82603,-32.77605],[151.83205,-32.77782],[151.84374,-32.78801],[151.85749,-32.79528],[151.85933,-32.79758],[151.86153,-32.80185],[151.86203,-32.80506],[151.86158,-32.80759],[151.86209,-32.80872],[151.86939,-32.81612],[151.87628,-32.82164],[151.88179,-32.82913],[151.87982,-32.82912],[151.87294,-32.82614],[151.86635,-32.82261],[151.85594,-32.82534],[151.85264,-32.82527],[151.85174,-32.82442],[151.85411,-32.82021],[151.85415,-32.81936],[151.85345,-32.81829],[151.84003,-32.81818],[151.83572,-32.81708],[151.83429,-32.81476],[151.83312,-32.81156],[151.82752,-32.80559],[151.81707,-32.79982],[151.81132,-32.79848],[151.81046,-32.79655],[151.80868,-32.78934],[151.80815,-32.7849],[151.80767,-32.78426],[151.80584,-32.7834],[151.80403,-32.78331],[151.79969,-32.785],[151.7994,-32.785]]]}},{"type":"Feature","properties":{"base":"RAAF Base Williamtown","band":"25+","bandMin":25},"geometry":{"type":"Polygon","coordinates":[[[151.83299,-32.65143],[151.83169,-32.65137],[151.8308,-32.65256],[151.83281,-32.65319],[151.83312,-32.65149],[151.83299,-32.65143]]]}},{"type":"Feature","properties":{"base":"RAAF Base Williamtown","band":"25+","bandMin":25},"geometry":{"type":"Polygon","coordinates":[[[151.84972,-32.67303],[151.84836,-32.67281],[151.85077,-32.67685],[151.85085,-32.67875],[151.85316,-32.68237],[151.85543,-32.68499],[151.856,-32.6852],[151.85659,-32.68467],[151.85887,-32.68594],[151.85691,-32.68221],[151.85719,-32.68113],[151.85636,-32.67947],[151.85268,-32.6751],[151.85166,-32.67453],[151.85154,-32.67368],[151.85041,-32.67271],[151.84983,-32.67306],[151.84972,-32.67303]],[[151.85306,-32.67708],[151.85294,-32.67691],[151.85293,-32.67687],[151.85294,-32.67684],[151.85323,-32.67686],[151.85324,-32.67687],[151.85335,-32.67708],[151.85323,-32.67716],[151.85306,-32.67708]]]}},{"type":"Feature","properties":{"base":"RAAF Base Williamtown","band":"25+","bandMin":25},"geometry":{"type":"Polygon","coordinates":[[[151.85335,-32.67708],[151.85294,-32.67684],[151.85323,-32.67716],[151.85335,-32.67708]]]}},{"type":"Feature","properties":{"base":"RAAF Base Williamtown","band":"30-35","bandMin":30},"geometry":{"type":"Polygon","coordinates":[[[151.92296,-32.73541],[151.92215,-32.73329],[151.9205,-32.73174],[151.91821,-32.73083],[151.9159,-32.73113],[151.90953,-32.7339],[151.90737,-32.73539],[151.90483,-32.73864],[151.90332,-32.74201],[151.90249,-32.74792],[151.90337,-32.75216],[151.90541,-32.75556],[151.91403,-32.76663],[151.91462,-32.76621],[151.91556,-32.76325],[151.92144,-32.75147],[151.92309,-32.74725],[151.9239,-32.74219],[151.92306,-32.73582],[151.92296,-32.73541]],[[151.91324,-32.7601],[151.91207,-32.75963],[151.90783,-32.75389],[151.90649,-32.75051],[151.9062,-32.74753],[151.90727,-32.74231],[151.90887,-32.7391],[151.91122,-32.73679],[151.91469,-32.73574],[151.91699,-32.73636],[151.91847,-32.73791],[151.91936,-32.74003],[151.91976,-32.74406],[151.91787,-32.7527],[151.91528,-32.75855],[151.91353,-32.76011],[151.91324,-32.7601]]]}},{"type":"Feature","properties":{"base":"RAAF Base Williamtown","band":"30-35","bandMin":30},"geometry":{"type":"Polygon","coordinates":[[[151.79993,-32.76649],[151.79708,-32.76558],[151.79105,-32.76255],[151.78945,-32.76252],[151.79046,-32.76443],[151.79862,-32.77403],[151.79783,-32.78121],[151.79882,-32.78479],[151.79997,-32.78497],[151.80258,-32.78365],[151.80461,-32.78328],[151.80662,-32.78366],[151.80807,-32.78469],[151.80877,-32.78977],[151.81132,-32.79848],[151.81707,-32.79982],[151.82752,-32.80559],[151.83312,-32.81156],[151.83429,-32.81476],[151.83586,-32.81716],[151.84003,-32.81818],[151.85345,-32.81829],[151.85418,-32.81979],[151.85174,-32.82442],[151.85248,-32.8252],[151.85594,-32.82534],[151.86635,-32.82261],[151.87323,-32.82627],[151.87982,-32.82912],[151.88163,-32.82934],[151.88137,-32.82821],[151.87628,-32.82164],[151.86939,-32.81612],[151.86209,-32.80872],[151.86158,-32.80759],[151.86203,-32.80506],[151.86153,-32.80185],[151.85933,-32.79758],[151.85749,-32.79528],[151.84374,-32.78801],[151.83205,-32.77782],[151.82603,-32.77605],[151.81652,-32.77556],[151.81052,-32.77222],[151.80425,-32.76689],[151.80253,-32.76639],[151.80022,-32.76652],[151.79993,-32.76649]],[[151.81181,-32.78324],[151.80895,-32.78138],[151.80397,-32.77936],[151.80355,-32.7764],[151.80086,-32.7713],[151.80274,-32.77164],[151.80647,-32.7734],[151.81848,-32.77996],[151.82368,-32.7791],[151.82943,-32.78054],[151.83189,-32.78237],[151.83366,-32.78438],[151.84254,-32.79117],[151.85427,-32.79799],[151.85641,-32.80078],[151.85731,-32.8029],[151.85738,-32.80502],[151.85623,-32.8067],[151.85639,-32.80733],[151.86308,-32.81384],[151.86701,-32.81885],[151.86266,-32.81855],[151.85919,-32.819],[151.85613,-32.81494],[151.8515,-32.81198],[151.84918,-32.81319],[151.84687,-32.8135],[151.84399,-32.81311],[151.84055,-32.81191],[151.83118,-32.8036],[151.81603,-32.79401],[151.8134,-32.78939],[151.81325,-32.78727],[151.81395,-32.78538],[151.81209,-32.78346],[151.81181,-32.78324]]]}},{"type":"Feature","properties":{"base":"RAAF Base Williamtown","band":"35-40","bandMin":35},"geometry":{"type":"Polygon","coordinates":[[[151.91977,-32.74321],[151.91869,-32.73828],[151.91718,-32.73649],[151.91527,-32.7358],[151.91296,-32.73605],[151.9109,-32.737],[151.90887,-32.7391],[151.90768,-32.7412],[151.90633,-32.74626],[151.90649,-32.75051],[151.90836,-32.75474],[151.91239,-32.75986],[151.91353,-32.76011],[151.91469,-32.75946],[151.91612,-32.75692],[151.91871,-32.75017],[151.91976,-32.74362],[151.91977,-32.74321]],[[151.91244,-32.75521],[151.91034,-32.75264],[151.9098,-32.74925],[151.91089,-32.74546],[151.91287,-32.74337],[151.91459,-32.74451],[151.91552,-32.74621],[151.91583,-32.75078],[151.91447,-32.75419],[151.91273,-32.75534],[151.91244,-32.75521]]]}},{"type":"Feature","properties":{"base":"RAAF Base Williamtown","band":"35-40","bandMin":35},"geometry":{"type":"Polygon","coordinates":[[[151.81228,-32.77648],[151.80303,-32.77175],[151.80086,-32.7713],[151.80355,-32.7764],[151.80397,-32.77936],[151.80953,-32.78169],[151.81386,-32.78516],[151.81325,-32.78727],[151.8134,-32.78939],[151.81603,-32.79401],[151.83118,-32.8036],[151.84043,-32.81184],[151.84399,-32.81311],[151.84687,-32.8135],[151.84918,-32.81319],[151.8515,-32.81198],[151.85613,-32.81494],[151.85919,-32.819],[151.86266,-32.81855],[151.86698,-32.8189],[151.86308,-32.81384],[151.85639,-32.80733],[151.85623,-32.8067],[151.85738,-32.80502],[151.85731,-32.8029],[151.85641,-32.80078],[151.85427,-32.79799],[151.84254,-32.79117],[151.83366,-32.78438],[151.83189,-32.78237],[151.82943,-32.78054],[151.82368,-32.7791],[151.82137,-32.77924],[151.81877,-32.78005],[151.81248,-32.77659],[151.81228,-32.77648]],[[151.84661,-32.81103],[151.84345,-32.81028],[151.84116,-32.80907],[151.83518,-32.80354],[151.82432,-32.79593],[151.81845,-32.79256],[151.81613,-32.78899],[151.81602,-32.78749],[151.81683,-32.78604],[151.81668,-32.7854],[151.80825,-32.77877],[151.80778,-32.77665],[151.80959,-32.77691],[151.8196,-32.78248],[151.82336,-32.78143],[151.82767,-32.7825],[151.84222,-32.79383],[151.85062,-32.79861],[151.85252,-32.80012],[151.85432,-32.80288],[151.85442,-32.80499],[151.85321,-32.80625],[151.85336,-32.80688],[151.85857,-32.81153],[151.86092,-32.81478],[151.86039,-32.81522],[151.85924,-32.81496],[151.85067,-32.80956],[151.84986,-32.8096],[151.84863,-32.81074],[151.8469,-32.81105],[151.84661,-32.81103]]]}},{"type":"Feature","properties":{"base":"RAAF Base Williamtown","band":"40+","bandMin":40},"geometry":{"type":"Polygon","coordinates":[[[151.91301,-32.75534],[151.91447,-32.75419],[151.91562,-32.75205],[151.91581,-32.74778],[151.91502,-32.74507],[151.91287,-32.74337],[151.91089,-32.74546],[151.90979,-32.74946],[151.91053,-32.75303],[151.91273,-32.75534],[151.91301,-32.75534]]]}},{"type":"Feature","properties":{"base":"RAAF Base Williamtown","band":"40+","bandMin":40},"geometry":{"type":"Polygon","coordinates":[[[151.81989,-32.78255],[151.80959,-32.77691],[151.80815,-32.77653],[151.80766,-32.77686],[151.80825,-32.77877],[151.81668,-32.7854],[151.81603,-32.78857],[151.81828,-32.79239],[151.82432,-32.79593],[151.83518,-32.80354],[151.84059,-32.80869],[151.84305,-32.81012],[151.84632,-32.81102],[151.84834,-32.81084],[151.8495,-32.81028],[151.84986,-32.8096],[151.85067,-32.80956],[151.85924,-32.81496],[151.86081,-32.81499],[151.86082,-32.81435],[151.85941,-32.81244],[151.85324,-32.80667],[151.85442,-32.80499],[151.85445,-32.8033],[151.85336,-32.80118],[151.85176,-32.79947],[151.84222,-32.79383],[151.82767,-32.7825],[151.82307,-32.78143],[151.82153,-32.78171],[151.82018,-32.78256],[151.81989,-32.78255]]]}}]}