{"type":"FeatureCollection","name":"RAAF Base Richmond ANEF (Defence)","attribution":"Department of Defence, Defence Airfields ANEF, CC BY 3.0 AU (data.gov.au)","features":[{"type":"Feature","properties":{"base":"RAAF Base Richmond","band":"20-25","bandMin":20},"geometry":{"type":"Polygon","coordinates":[[[150.78265,-33.59156],[150.78378,-33.58635],[150.78084,-33.5948],[150.77959,-33.59723],[150.77837,-33.59782],[150.75335,-33.58897],[150.74622,-33.58582],[150.74079,-33.5864],[150.73291,-33.58547],[150.72481,-33.58699],[150.72001,-33.59224],[150.71611,-33.59889],[150.71549,-33.60141],[150.71602,-33.60262],[150.71691,-33.6031],[150.71823,-33.59995],[150.71833,-33.59731],[150.7215,-33.59225],[150.72442,-33.59175],[150.72742,-33.5921],[150.72969,-33.59312],[150.73092,-33.5954],[150.73212,-33.59607],[150.73392,-33.59641],[150.73934,-33.59612],[150.74472,-33.59719],[150.75603,-33.60138],[150.76674,-33.60607],[150.7763,-33.60827],[150.77718,-33.60939],[150.7781,-33.60855],[150.7799,-33.60861],[150.78966,-33.61146],[150.8038,-33.61465],[150.80663,-33.61614],[150.80911,-33.61887],[150.81002,-33.61867],[150.81217,-33.61665],[150.81338,-33.61631],[150.81638,-33.61659],[150.82106,-33.61791],[150.82414,-33.61946],[150.8256,-33.62101],[150.82669,-33.62656],[150.82592,-33.63158],[150.82684,-33.63147],[150.82806,-33.63048],[150.82935,-33.62837],[150.82994,-33.62536],[150.82984,-33.62296],[150.82884,-33.61921],[150.83147,-33.61667],[150.83156,-33.61432],[150.83298,-33.61183],[150.82792,-33.61207],[150.8251,-33.61165],[150.81657,-33.6092],[150.81527,-33.60825],[150.81378,-33.6057],[150.80697,-33.60609],[150.79329,-33.60221],[150.78283,-33.59986],[150.78165,-33.59914],[150.78134,-33.59808],[150.78258,-33.59181],[150.78265,-33.59156]],[[150.78012,-33.59781],[150.78214,-33.59158],[150.78046,-33.59869],[150.78071,-33.60067],[150.81056,-33.60888],[150.82219,-33.6139],[150.82347,-33.61468],[150.82372,-33.61544],[150.82255,-33.61578],[150.814,-33.6142],[150.80833,-33.614],[150.78024,-33.60712],[150.77784,-33.60698],[150.76977,-33.60499],[150.74564,-33.59517],[150.74478,-33.5944],[150.74507,-33.5934],[150.74315,-33.59211],[150.74305,-33.5916],[150.7446,-33.59015],[150.74791,-33.59019],[150.75746,-33.59263],[150.77802,-33.59973],[150.77923,-33.59965],[150.78001,-33.59806],[150.78012,-33.59781]]]}},{"type":"Feature","properties":{"base":"RAAF Base Richmond","band":"25-30","bandMin":25},"geometry":{"type":"Polygon","coordinates":[[[150.76315,-33.59469],[150.75627,-33.59226],[150.74742,-33.5901],[150.7443,-33.59024],[150.74305,-33.5916],[150.74315,-33.59211],[150.74507,-33.5934],[150.74478,-33.5944],[150.74564,-33.59517],[150.76977,-33.60499],[150.77784,-33.60698],[150.78024,-33.60712],[150.80833,-33.614],[150.814,-33.6142],[150.82255,-33.61578],[150.82372,-33.61544],[150.82347,-33.61468],[150.82219,-33.6139],[150.81056,-33.60888],[150.78071,-33.60067],[150.78046,-33.59869],[150.78214,-33.59158],[150.77986,-33.59858],[150.77892,-33.59982],[150.7633,-33.59474],[150.76315,-33.59469]],[[150.77787,-33.60568],[150.76944,-33.60346],[150.75765,-33.59841],[150.75646,-33.59763],[150.75468,-33.59483],[150.75561,-33.5946],[150.7583,-33.59515],[150.77829,-33.60105],[150.7795,-33.60064],[150.77979,-33.60139],[150.78068,-33.60186],[150.79441,-33.60552],[150.80783,-33.61003],[150.81083,-33.61169],[150.80868,-33.61191],[150.80449,-33.61135],[150.79162,-33.60897],[150.77817,-33.60578],[150.77787,-33.60568]]]}},{"type":"Feature","properties":{"base":"RAAF Base Richmond","band":"30-35","bandMin":30},"geometry":{"type":"Polygon","coordinates":[[[150.76939,-33.59866],[150.75829,-33.59515],[150.75561,-33.5946],[150.75468,-33.59483],[150.75713,-33.59815],[150.7704,-33.60377],[150.79311,-33.60928],[150.80688,-33.61175],[150.81083,-33.61169],[150.80783,-33.61003],[150.79441,-33.60552],[150.78068,-33.60186],[150.77979,-33.60139],[150.7795,-33.60064],[150.77859,-33.60112],[150.7697,-33.59876],[150.76939,-33.59866]],[[150.78238,-33.60583],[150.77014,-33.60255],[150.76471,-33.60005],[150.76387,-33.59877],[150.77917,-33.60189],[150.78125,-33.60283],[150.79409,-33.60627],[150.80184,-33.60952],[150.79327,-33.6085],[150.78268,-33.6059],[150.78238,-33.60583]]]}},{"type":"Feature","properties":{"base":"RAAF Base Richmond","band":"35+","bandMin":35},"geometry":{"type":"Polygon","coordinates":[[[150.77876,-33.60206],[150.76542,-33.59879],[150.76387,-33.59877],[150.76405,-33.59953],[150.76522,-33.60031],[150.77014,-33.60255],[150.77521,-33.60415],[150.79194,-33.60824],[150.80184,-33.60952],[150.7929,-33.60589],[150.77887,-33.60208],[150.77876,-33.60206]]]}}]}