{"type":"FeatureCollection","name":"RAAF Base Scherger ANEF (Defence)","attribution":"Department of Defence, Defence Airfields ANEF, CC BY 3.0 AU (data.gov.au)","features":[{"type":"Feature","properties":{"base":"RAAF Base Scherger","band":"20-25","bandMin":20},"geometry":{"type":"Polygon","coordinates":[[[142.03249,-12.58456],[142.02697,-12.58389],[142.02239,-12.58211],[142.02067,-12.58163],[142.02004,-12.58195],[142.02024,-12.58314],[142.02408,-12.58735],[142.03177,-12.59904],[142.04948,-12.61279],[142.06111,-12.62108],[142.07223,-12.62734],[142.08211,-12.63174],[142.09439,-12.64128],[142.10166,-12.64541],[142.11821,-12.65385],[142.13346,-12.66092],[142.1368,-12.66169],[142.14209,-12.66198],[142.15506,-12.6642],[142.15606,-12.66403],[142.15601,-12.6633],[142.15017,-12.65772],[142.14506,-12.64767],[142.13993,-12.64116],[142.13927,-12.63995],[142.13876,-12.63365],[142.13739,-12.62842],[142.13569,-12.6255],[142.1299,-12.61979],[142.11983,-12.61467],[142.09951,-12.60321],[142.07092,-12.58429],[142.06535,-12.58269],[142.06047,-12.58251],[142.05021,-12.58538],[142.04833,-12.58553],[142.04251,-12.58446],[142.03371,-12.58457],[142.03249,-12.58456]],[[142.05342,-12.58914],[142.06028,-12.58559],[142.06442,-12.58612],[142.07097,-12.58842],[142.08571,-12.59918],[142.09811,-12.6069],[142.11392,-12.61604],[142.1241,-12.62089],[142.12914,-12.62391],[142.13263,-12.62711],[142.13507,-12.6314],[142.13512,-12.63536],[142.13322,-12.64347],[142.13349,-12.64488],[142.13851,-12.65128],[142.13959,-12.65341],[142.13931,-12.65388],[142.1371,-12.65428],[142.13321,-12.65337],[142.1156,-12.64762],[142.09887,-12.63956],[142.09616,-12.63795],[142.08599,-12.62991],[142.07846,-12.62584],[142.07244,-12.62348],[142.0699,-12.62196],[142.04945,-12.60738],[142.04715,-12.6042],[142.03909,-12.59607],[142.03721,-12.59344],[142.03671,-12.5919],[142.03715,-12.5913],[142.0382,-12.59113],[142.04642,-12.59312],[142.0481,-12.59309],[142.04982,-12.59217],[142.05342,-12.58914]]]}},{"type":"Feature","properties":{"base":"RAAF Base Scherger","band":"25-30","bandMin":25},"geometry":{"type":"Polygon","coordinates":[[[142.07368,-12.59051],[142.06922,-12.58763],[142.06442,-12.58612],[142.06028,-12.58559],[142.05342,-12.58914],[142.0481,-12.59309],[142.04642,-12.59312],[142.0382,-12.59113],[142.03715,-12.5913],[142.03673,-12.59254],[142.03909,-12.59607],[142.04715,-12.6042],[142.04945,-12.60738],[142.0699,-12.62196],[142.07244,-12.62348],[142.07846,-12.62584],[142.08599,-12.62991],[142.09616,-12.63795],[142.11921,-12.64905],[142.13321,-12.65337],[142.1371,-12.65428],[142.13931,-12.65388],[142.13959,-12.65341],[142.13851,-12.65128],[142.13349,-12.64488],[142.13322,-12.64347],[142.13512,-12.63536],[142.13507,-12.6314],[142.13263,-12.62711],[142.13062,-12.6251],[142.1241,-12.62089],[142.12057,-12.61951],[142.10355,-12.6102],[142.08571,-12.59918],[142.07522,-12.59172],[142.07368,-12.59051]],[[142.0557,-12.59233],[142.05773,-12.59121],[142.05827,-12.59152],[142.05851,-12.59217],[142.0569,-12.59648],[142.05797,-12.59922],[142.05901,-12.60043],[142.07139,-12.60725],[142.07784,-12.61006],[142.09046,-12.61855],[142.10399,-12.62558],[142.11842,-12.63666],[142.1225,-12.63841],[142.12435,-12.63863],[142.12568,-12.63841],[142.12954,-12.63484],[142.13012,-12.6345],[142.13062,-12.63483],[142.13077,-12.63585],[142.13001,-12.63797],[142.126,-12.64597],[142.12526,-12.64626],[142.11982,-12.64546],[142.10036,-12.63675],[142.09662,-12.63474],[142.08649,-12.62728],[142.07465,-12.62142],[142.07014,-12.6186],[142.06631,-12.61511],[142.05506,-12.6069],[142.04968,-12.60073],[142.04974,-12.59933],[142.05449,-12.5934],[142.0557,-12.59233]]]}},{"type":"Feature","properties":{"base":"RAAF Base Scherger","band":"30-35","bandMin":30},"geometry":{"type":"Polygon","coordinates":[[[142.06662,-12.6045],[142.06089,-12.60171],[142.05797,-12.59922],[142.0569,-12.59648],[142.05851,-12.59217],[142.05773,-12.59121],[142.05449,-12.5934],[142.0495,-12.6001],[142.05506,-12.6069],[142.06631,-12.61511],[142.07014,-12.6186],[142.07465,-12.62142],[142.08649,-12.62728],[142.09755,-12.63537],[142.11982,-12.64546],[142.12526,-12.64626],[142.126,-12.64597],[142.13001,-12.63797],[142.13077,-12.63585],[142.13062,-12.63483],[142.13012,-12.6345],[142.12954,-12.63484],[142.12568,-12.63841],[142.1225,-12.63841],[142.12056,-12.63772],[142.11842,-12.63666],[142.10399,-12.62558],[142.09046,-12.61855],[142.07784,-12.61006],[142.07284,-12.60799],[142.06816,-12.60536],[142.06662,-12.6045]],[[142.11655,-12.6407],[142.11178,-12.63893],[142.10387,-12.63482],[142.09872,-12.63378],[142.08332,-12.62388],[142.0734,-12.61849],[142.06751,-12.61273],[142.06011,-12.60757],[142.05786,-12.60555],[142.05755,-12.60472],[142.05945,-12.60475],[142.0617,-12.60558],[142.07099,-12.61012],[142.07691,-12.61165],[142.07912,-12.61281],[142.09248,-12.62163],[142.09689,-12.62369],[142.10379,-12.62789],[142.10725,-12.63172],[142.11807,-12.64002],[142.11829,-12.64092],[142.11744,-12.64096],[142.11655,-12.6407]]]}},{"type":"Feature","properties":{"base":"RAAF Base Scherger","band":"35-40","bandMin":35},"geometry":{"type":"Polygon","coordinates":[[[142.0726,-12.61067],[142.0617,-12.60558],[142.05945,-12.60475],[142.05755,-12.60472],[142.05786,-12.60555],[142.06011,-12.60757],[142.06751,-12.61273],[142.0734,-12.61849],[142.08332,-12.62388],[142.09872,-12.63378],[142.10387,-12.63482],[142.11178,-12.63893],[142.11655,-12.6407],[142.11829,-12.64092],[142.11807,-12.64002],[142.11564,-12.63787],[142.10725,-12.63172],[142.10379,-12.62789],[142.09689,-12.62369],[142.09248,-12.62163],[142.07691,-12.61165],[142.0726,-12.61067]],[[142.09974,-12.63188],[142.08868,-12.62477],[142.07411,-12.61655],[142.07348,-12.61468],[142.0684,-12.61099],[142.07393,-12.61352],[142.07492,-12.61324],[142.07676,-12.61391],[142.09017,-12.62239],[142.09933,-12.62734],[142.10193,-12.62901],[142.10279,-12.63093],[142.10785,-12.63478],[142.10188,-12.63193],[142.10038,-12.63214],[142.09974,-12.63188]]]}},{"type":"Feature","properties":{"base":"RAAF Base Scherger","band":"40+","bandMin":40},"geometry":{"type":"Polygon","coordinates":[[[142.07393,-12.61352],[142.0684,-12.61099],[142.07348,-12.61468],[142.07411,-12.61655],[142.08868,-12.62477],[142.09716,-12.63052],[142.10038,-12.63214],[142.10188,-12.63193],[142.10785,-12.63478],[142.10279,-12.63093],[142.10193,-12.62901],[142.09933,-12.62734],[142.09017,-12.62239],[142.07676,-12.61391],[142.07492,-12.61324],[142.07418,-12.61354],[142.07393,-12.61352]]]}}]}