{"type":"FeatureCollection","name":"RAAF Base Pearce ANEF (Defence)","attribution":"Department of Defence, Defence Airfields ANEF, CC BY 3.0 AU (data.gov.au)","features":[{"type":"Feature","properties":{"base":"RAAF Base Pearce","band":"20-25","bandMin":20},"geometry":{"type":"Polygon","coordinates":[[[116.01474,-31.65092],[116.01285,-31.64606],[116.01164,-31.64474],[116.01072,-31.64471],[116.00995,-31.64597],[116.00954,-31.64884],[116.00959,-31.65772],[116.00893,-31.66271],[116.00945,-31.66868],[116.00719,-31.67206],[116.0068,-31.67384],[116.00981,-31.67358],[116.01041,-31.67403],[116.01113,-31.68384],[116.01519,-31.70163],[116.01621,-31.70365],[116.01817,-31.70451],[116.01956,-31.70387],[116.02111,-31.70198],[116.02197,-31.6975],[116.02177,-31.68262],[116.01957,-31.67268],[116.01924,-31.66641],[116.01986,-31.66485],[116.02262,-31.66188],[116.02466,-31.65862],[116.0237,-31.6587],[116.0194,-31.66099],[116.01849,-31.661],[116.01633,-31.65725],[116.01475,-31.65097],[116.01474,-31.65092]],[[116.00859,-31.67306],[116.00788,-31.67207],[116.01085,-31.66869],[116.01038,-31.66216],[116.01107,-31.65903],[116.01133,-31.65303],[116.01218,-31.65095],[116.01339,-31.65233],[116.01532,-31.65881],[116.01747,-31.663],[116.01847,-31.66275],[116.02093,-31.66084],[116.0221,-31.66147],[116.01845,-31.6651],[116.01777,-31.66666],[116.02029,-31.68443],[116.02026,-31.69608],[116.0197,-31.69853],[116.01869,-31.69962],[116.01778,-31.69948],[116.01687,-31.69837],[116.01466,-31.69196],[116.01256,-31.68307],[116.01149,-31.67235],[116.01074,-31.67186],[116.0089,-31.67307],[116.00859,-31.67306]]]}},{"type":"Feature","properties":{"base":"RAAF Base Pearce","band":"25-30","bandMin":25},"geometry":{"type":"Polygon","coordinates":[[[116.01491,-31.65724],[116.01369,-31.65302],[116.01218,-31.65095],[116.01133,-31.65303],[116.01107,-31.65903],[116.01038,-31.66216],[116.01085,-31.66869],[116.0078,-31.67233],[116.0089,-31.67307],[116.01074,-31.67186],[116.01139,-31.67209],[116.01252,-31.68281],[116.0145,-31.69136],[116.01657,-31.69776],[116.01748,-31.69923],[116.01839,-31.69968],[116.01931,-31.69915],[116.02003,-31.69749],[116.0204,-31.69074],[116.02006,-31.6813],[116.01833,-31.67215],[116.01779,-31.6664],[116.01845,-31.6651],[116.0221,-31.66147],[116.02093,-31.66084],[116.01755,-31.66307],[116.01497,-31.6575],[116.01491,-31.65724]],[[116.00884,-31.6726],[116.00839,-31.67207],[116.01178,-31.6687],[116.01138,-31.66217],[116.01231,-31.66035],[116.01303,-31.65725],[116.01453,-31.66024],[116.01575,-31.66142],[116.01662,-31.66439],[116.01754,-31.66412],[116.02093,-31.6613],[116.02161,-31.66146],[116.02126,-31.66225],[116.01753,-31.66529],[116.01677,-31.66665],[116.01909,-31.68364],[116.0189,-31.69121],[116.01846,-31.693],[116.01784,-31.69364],[116.01693,-31.6929],[116.01603,-31.69115],[116.01407,-31.68491],[116.01198,-31.67053],[116.0089,-31.67263],[116.00884,-31.6726]]]}},{"type":"Feature","properties":{"base":"RAAF Base Pearce","band":"30-35","bandMin":30},"geometry":{"type":"Polygon","coordinates":[[[116.0156,-31.66116],[116.01453,-31.66024],[116.01303,-31.65725],[116.01231,-31.66035],[116.01138,-31.66217],[116.01178,-31.6687],[116.00822,-31.67233],[116.0089,-31.67263],[116.01198,-31.67053],[116.01407,-31.68491],[116.01603,-31.69115],[116.01693,-31.6929],[116.01784,-31.69364],[116.01846,-31.693],[116.0189,-31.69121],[116.01909,-31.68364],[116.01677,-31.66665],[116.01753,-31.66529],[116.02126,-31.66225],[116.02161,-31.66146],[116.02093,-31.6613],[116.01693,-31.66446],[116.01574,-31.66139],[116.0156,-31.66116]],[[116.01421,-31.66131],[116.01508,-31.66168],[116.016,-31.66552],[116.0214,-31.66146],[116.01601,-31.66664],[116.01818,-31.68337],[116.0176,-31.68711],[116.01699,-31.68784],[116.0147,-31.68387],[116.01261,-31.66949],[116.00846,-31.67233],[116.01243,-31.66871],[116.0127,-31.66766],[116.01217,-31.66191],[116.01268,-31.66137],[116.0136,-31.66171],[116.01406,-31.66141],[116.01421,-31.66131]]]}},{"type":"Feature","properties":{"base":"RAAF Base Pearce","band":"35-40","bandMin":35},"geometry":{"type":"Polygon","coordinates":[[[116.01488,-31.66141],[116.0123,-31.66165],[116.01264,-31.66819],[116.00846,-31.67233],[116.01261,-31.66949],[116.0147,-31.68387],[116.01699,-31.68784],[116.0176,-31.68711],[116.01818,-31.68337],[116.01601,-31.66664],[116.0214,-31.66146],[116.016,-31.66552],[116.01508,-31.66168],[116.01488,-31.66141]],[[116.01419,-31.66167],[116.01493,-31.66298],[116.01531,-31.66612],[116.01571,-31.66612],[116.01548,-31.66795],[116.01747,-31.68337],[116.01739,-31.68467],[116.01702,-31.68481],[116.0161,-31.68491],[116.0155,-31.68433],[116.01497,-31.68283],[116.01306,-31.66897],[116.00885,-31.67207],[116.01322,-31.66819],[116.0127,-31.66218],[116.01299,-31.66178],[116.01359,-31.66219],[116.01392,-31.66193],[116.01419,-31.66167]]]}},{"type":"Feature","properties":{"base":"RAAF Base Pearce","band":"40+","bandMin":40},"geometry":{"type":"Polygon","coordinates":[[[116.01462,-31.66193],[116.01421,-31.66165],[116.01359,-31.66219],[116.01299,-31.66178],[116.0127,-31.66218],[116.01322,-31.66819],[116.00885,-31.67207],[116.01306,-31.66897],[116.01497,-31.68283],[116.0161,-31.68491],[116.01739,-31.68467],[116.01747,-31.68337],[116.01548,-31.66795],[116.01571,-31.66612],[116.01531,-31.66612],[116.01469,-31.6622],[116.01462,-31.66193]]]}}]}