{"type":"FeatureCollection","name":"RAAF Base Darwin ANEF (Defence)","attribution":"Department of Defence, Defence Airfields ANEF, CC BY 3.0 AU (data.gov.au)","features":[{"type":"Feature","properties":{"base":"RAAF Base Darwin","band":"20-25","bandMin":20},"geometry":{"type":"Polygon","coordinates":[[[131.02385,-12.45522],[131.02449,-12.45442],[131.02385,-12.45348],[131.02276,-12.45453],[131.02382,-12.45522],[131.02385,-12.45522]]]}},{"type":"Feature","properties":{"base":"RAAF Base Darwin","band":"20-25","bandMin":20},"geometry":{"type":"Polygon","coordinates":[[[130.9704,-12.42197],[130.96965,-12.42148],[130.96912,-12.42011],[130.96789,-12.41998],[130.96619,-12.42146],[130.96599,-12.42387],[130.96723,-12.42638],[130.97074,-12.42873],[130.97212,-12.42835],[130.97365,-12.42918],[130.97756,-12.42711],[130.98039,-12.4268],[130.98243,-12.42568],[130.97926,-12.42392],[130.97646,-12.42338],[130.97511,-12.42171],[130.97345,-12.42181],[130.97227,-12.42051],[130.97044,-12.42198],[130.9704,-12.42197]],[[130.96929,-12.42324],[130.96883,-12.42278],[130.96933,-12.42197],[130.96973,-12.42276],[130.9693,-12.42324],[130.96929,-12.42324]]]}},{"type":"Feature","properties":{"base":"RAAF Base Darwin","band":"20-25","bandMin":20},"geometry":{"type":"Polygon","coordinates":[[[130.84684,-12.39533],[130.82896,-12.38987],[130.82184,-12.38664],[130.81496,-12.38588],[130.78871,-12.38032],[130.78294,-12.37871],[130.77978,-12.37832],[130.77672,-12.37884],[130.77782,-12.3803],[130.77982,-12.38146],[130.80255,-12.39308],[130.80585,-12.39524],[130.80824,-12.39762],[130.81104,-12.39872],[130.81657,-12.39938],[130.8217,-12.40089],[130.82902,-12.40364],[130.83583,-12.40718],[130.84189,-12.40921],[130.84415,-12.4111],[130.84858,-12.41748],[130.85137,-12.41815],[130.85431,-12.42034],[130.86353,-12.42511],[130.86751,-12.42801],[130.86969,-12.43092],[130.87113,-12.43192],[130.87368,-12.4317],[130.87818,-12.43395],[130.88384,-12.43386],[130.88668,-12.43488],[130.89891,-12.43726],[130.90452,-12.43732],[130.91043,-12.4395],[130.91253,-12.43827],[130.91473,-12.43573],[130.92344,-12.4362],[130.93159,-12.43787],[130.95265,-12.44352],[130.96654,-12.44538],[130.96967,-12.44499],[130.96333,-12.44083],[130.95454,-12.43638],[130.93009,-12.42555],[130.92283,-12.4216],[130.91662,-12.41751],[130.91247,-12.41326],[130.90984,-12.41205],[130.90388,-12.40751],[130.90072,-12.40612],[130.89811,-12.40365],[130.89766,-12.40201],[130.89645,-12.40121],[130.88315,-12.3964],[130.87543,-12.39562],[130.8727,-12.39443],[130.8712,-12.39268],[130.86998,-12.39343],[130.86828,-12.39555],[130.86667,-12.39599],[130.86439,-12.3962],[130.86212,-12.39575],[130.85838,-12.39631],[130.85673,-12.39707],[130.84713,-12.39538],[130.84684,-12.39533]],[[130.83041,-12.39876],[130.82671,-12.3969],[130.82638,-12.39578],[130.82532,-12.39537],[130.83899,-12.39767],[130.85441,-12.40204],[130.86056,-12.40122],[130.86186,-12.39992],[130.86408,-12.40085],[130.86551,-12.40058],[130.86706,-12.40128],[130.86982,-12.40116],[130.87125,-12.40048],[130.87277,-12.40188],[130.88279,-12.40274],[130.88944,-12.40461],[130.89077,-12.40531],[130.89183,-12.40656],[130.89623,-12.40834],[130.89934,-12.40876],[130.90286,-12.41162],[130.90653,-12.41732],[130.91077,-12.42091],[130.92682,-12.42945],[130.92893,-12.43119],[130.92721,-12.43144],[130.92028,-12.43048],[130.90907,-12.42833],[130.90638,-12.42867],[130.90474,-12.43006],[130.90073,-12.42862],[130.89223,-12.4295],[130.8884,-12.42814],[130.88239,-12.42818],[130.87447,-12.42574],[130.86978,-12.42362],[130.86841,-12.42099],[130.86655,-12.42035],[130.86676,-12.4185],[130.85892,-12.41409],[130.85218,-12.40904],[130.84768,-12.40636],[130.83742,-12.40251],[130.83058,-12.39885],[130.83041,-12.39876]]]}},{"type":"Feature","properties":{"base":"RAAF Base Darwin","band":"25-30","bandMin":25},"geometry":{"type":"Polygon","coordinates":[[[130.89926,-12.43158],[130.89972,-12.43112],[130.89923,-12.43049],[130.89872,-12.43113],[130.89924,-12.43158],[130.89926,-12.43158]]]}},{"type":"Feature","properties":{"base":"RAAF Base Darwin","band":"25-30","bandMin":25},"geometry":{"type":"Polygon","coordinates":[[[130.97592,-12.42459],[130.97501,-12.42353],[130.97391,-12.42343],[130.96856,-12.42568],[130.9724,-12.42701],[130.97486,-12.42673],[130.97777,-12.42567],[130.97601,-12.42469],[130.97592,-12.42459]],[[130.97216,-12.42659],[130.97072,-12.42567],[130.97214,-12.42466],[130.97354,-12.42483],[130.97489,-12.42563],[130.97218,-12.4266],[130.97216,-12.42659]]]}},{"type":"Feature","properties":{"base":"RAAF Base Darwin","band":"25-30","bandMin":25},"geometry":{"type":"Polygon","coordinates":[[[130.85476,-12.40207],[130.8474,-12.40033],[130.83899,-12.39767],[130.82532,-12.39537],[130.82638,-12.39578],[130.82674,-12.39692],[130.83708,-12.40235],[130.84468,-12.40502],[130.85218,-12.40904],[130.85892,-12.41409],[130.86676,-12.4185],[130.86655,-12.42035],[130.86841,-12.42099],[130.86978,-12.42362],[130.87447,-12.42574],[130.88239,-12.42818],[130.8884,-12.42814],[130.89223,-12.4295],[130.90073,-12.42862],[130.90474,-12.43006],[130.90638,-12.42867],[130.90907,-12.42833],[130.92028,-12.43048],[130.92721,-12.43144],[130.92893,-12.4312],[130.92682,-12.42945],[130.91077,-12.42091],[130.90653,-12.41732],[130.90286,-12.41162],[130.89934,-12.40876],[130.89623,-12.40834],[130.89183,-12.40656],[130.89077,-12.40531],[130.88944,-12.40461],[130.88279,-12.40274],[130.87277,-12.40188],[130.87125,-12.40048],[130.86982,-12.40116],[130.86706,-12.40128],[130.86551,-12.40058],[130.86408,-12.40085],[130.86186,-12.39992],[130.86056,-12.40122],[130.85484,-12.40207],[130.85476,-12.40207]],[[130.86144,-12.40418],[130.86278,-12.40273],[130.86455,-12.40379],[130.86831,-12.4038],[130.86998,-12.40575],[130.87267,-12.40633],[130.87718,-12.40606],[130.88244,-12.40721],[130.88648,-12.40905],[130.89078,-12.4121],[130.89217,-12.41217],[130.89377,-12.41116],[130.89785,-12.41213],[130.901,-12.41426],[130.90252,-12.41761],[130.9053,-12.42113],[130.91053,-12.42435],[130.9093,-12.42498],[130.90503,-12.42462],[130.90224,-12.42555],[130.89926,-12.42544],[130.89593,-12.4261],[130.89329,-12.42547],[130.89016,-12.42399],[130.87893,-12.42209],[130.87551,-12.42094],[130.87122,-12.41859],[130.86974,-12.41707],[130.85965,-12.41132],[130.85119,-12.405],[130.85231,-12.40435],[130.86143,-12.4042],[130.86144,-12.40418]]]}},{"type":"Feature","properties":{"base":"RAAF Base Darwin","band":"30-35","bandMin":30},"geometry":{"type":"Polygon","coordinates":[[[130.97396,-12.42501],[130.97222,-12.42464],[130.97072,-12.42567],[130.97223,-12.42659],[130.97488,-12.42569],[130.97418,-12.42513],[130.97396,-12.42501]],[[130.97214,-12.4262],[130.97134,-12.42567],[130.97218,-12.42509],[130.97305,-12.42567],[130.97218,-12.4262],[130.97214,-12.4262]]]}},{"type":"Feature","properties":{"base":"RAAF Base Darwin","band":"30-35","bandMin":30},"geometry":{"type":"Polygon","coordinates":[[[130.86562,-12.40386],[130.86422,-12.4037],[130.86278,-12.40273],[130.86123,-12.40429],[130.85231,-12.40435],[130.85119,-12.405],[130.85965,-12.41132],[130.86974,-12.41707],[130.87122,-12.41859],[130.87551,-12.42094],[130.87893,-12.42209],[130.89016,-12.42399],[130.89329,-12.42547],[130.89593,-12.4261],[130.89926,-12.42544],[130.90224,-12.42555],[130.90503,-12.42462],[130.9093,-12.42498],[130.91053,-12.42435],[130.9053,-12.42113],[130.90252,-12.41761],[130.901,-12.41426],[130.89785,-12.41213],[130.89377,-12.41116],[130.89217,-12.41217],[130.89085,-12.41212],[130.8863,-12.40895],[130.88209,-12.40708],[130.87692,-12.40604],[130.87256,-12.40632],[130.86985,-12.4057],[130.86842,-12.40384],[130.86597,-12.40386],[130.86562,-12.40386]],[[130.86342,-12.40621],[130.86381,-12.40506],[130.86442,-12.40476],[130.86825,-12.40599],[130.87147,-12.40806],[130.87416,-12.4078],[130.87718,-12.40819],[130.88139,-12.40944],[130.88517,-12.41092],[130.88883,-12.41331],[130.89216,-12.4147],[130.89362,-12.41397],[130.89446,-12.4149],[130.89781,-12.41495],[130.89991,-12.41735],[130.89907,-12.41888],[130.90068,-12.41961],[130.90283,-12.42176],[130.90106,-12.42306],[130.89781,-12.42323],[130.89462,-12.42411],[130.88874,-12.42141],[130.87998,-12.41981],[130.87525,-12.41825],[130.87194,-12.41656],[130.86978,-12.41453],[130.86565,-12.41345],[130.86228,-12.41084],[130.86036,-12.40871],[130.85853,-12.40801],[130.85711,-12.4064],[130.86239,-12.4068],[130.8634,-12.40625],[130.86342,-12.40621]]]}},{"type":"Feature","properties":{"base":"RAAF Base Darwin","band":"35-40","bandMin":35},"geometry":{"type":"Polygon","coordinates":[[[130.97299,-12.42552],[130.97211,-12.4251],[130.97134,-12.4257],[130.97226,-12.42619],[130.973,-12.42553],[130.97299,-12.42552]],[[130.97212,-12.4258],[130.97211,-12.4258],[130.97209,-12.4258],[130.97207,-12.42579],[130.97205,-12.42578],[130.97204,-12.42578],[130.97202,-12.42577],[130.97201,-12.42576],[130.97199,-12.42575],[130.97198,-12.42574],[130.97197,-12.42573],[130.97196,-12.42572],[130.97195,-12.42571],[130.97194,-12.4257],[130.97194,-12.42568],[130.97194,-12.42567],[130.97194,-12.42566],[130.97195,-12.42565],[130.97195,-12.42563],[130.97196,-12.42562],[130.97197,-12.42561],[130.97198,-12.4256],[130.972,-12.42559],[130.97201,-12.42558],[130.97203,-12.42557],[130.97204,-12.42556],[130.97206,-12.42555],[130.97208,-12.42554],[130.97209,-12.42553],[130.97211,-12.42553],[130.97213,-12.42553],[130.97214,-12.42552],[130.97216,-12.42552],[130.97218,-12.42553],[130.9722,-12.42553],[130.97222,-12.42554],[130.97224,-12.42554],[130.97225,-12.42555],[130.97227,-12.42556],[130.97229,-12.42557],[130.97231,-12.42558],[130.97232,-12.4256],[130.97233,-12.42561],[130.97235,-12.42562],[130.97236,-12.42563],[130.97237,-12.42565],[130.97237,-12.42566],[130.97237,-12.42567],[130.97237,-12.42568],[130.97237,-12.4257],[130.97236,-12.42571],[130.97235,-12.42572],[130.97234,-12.42573],[130.97233,-12.42574],[130.97231,-12.42575],[130.9723,-12.42576],[130.97228,-12.42577],[130.97226,-12.42578],[130.97224,-12.42579],[130.97222,-12.42579],[130.9722,-12.4258],[130.97218,-12.4258],[130.97216,-12.42581],[130.97214,-12.42581],[130.97212,-12.4258]]]}},{"type":"Feature","properties":{"base":"RAAF Base Darwin","band":"35-40","bandMin":35},"geometry":{"type":"Polygon","coordinates":[[[130.86864,-12.40647],[130.86823,-12.40598],[130.86428,-12.40474],[130.86273,-12.40676],[130.85711,-12.4064],[130.85853,-12.40801],[130.86036,-12.40871],[130.86323,-12.41169],[130.86567,-12.41346],[130.86974,-12.41451],[130.87227,-12.41676],[130.87893,-12.4195],[130.8886,-12.42137],[130.8947,-12.42413],[130.89781,-12.42323],[130.90106,-12.42306],[130.90282,-12.42177],[130.90068,-12.41961],[130.89907,-12.41888],[130.89991,-12.41735],[130.89785,-12.41497],[130.89446,-12.4149],[130.89362,-12.41397],[130.89221,-12.41471],[130.88883,-12.41331],[130.88517,-12.41092],[130.88104,-12.40932],[130.87438,-12.40782],[130.87156,-12.40808],[130.86865,-12.40649],[130.86864,-12.40647]],[[130.86473,-12.40676],[130.86606,-12.40654],[130.87201,-12.40916],[130.87963,-12.41069],[130.89154,-12.41548],[130.89645,-12.41606],[130.89731,-12.4176],[130.89724,-12.42106],[130.8951,-12.42284],[130.89258,-12.42244],[130.88888,-12.42037],[130.87281,-12.41556],[130.87043,-12.41326],[130.8656,-12.41257],[130.86312,-12.41038],[130.86335,-12.40789],[130.86456,-12.40685],[130.86473,-12.40676]]]}},{"type":"Feature","properties":{"base":"RAAF Base Darwin","band":"40+","bandMin":40},"geometry":{"type":"Polygon","coordinates":[[[130.97216,-12.42581],[130.97218,-12.4258],[130.9722,-12.4258],[130.97222,-12.42579],[130.97224,-12.42579],[130.97226,-12.42578],[130.97228,-12.42577],[130.9723,-12.42576],[130.97231,-12.42575],[130.97233,-12.42574],[130.97234,-12.42573],[130.97235,-12.42572],[130.97236,-12.42571],[130.97237,-12.4257],[130.97237,-12.42568],[130.97237,-12.42567],[130.97237,-12.42566],[130.97237,-12.42565],[130.97236,-12.42563],[130.97235,-12.42562],[130.97233,-12.42561],[130.97232,-12.4256],[130.97231,-12.42558],[130.97229,-12.42557],[130.97227,-12.42556],[130.97225,-12.42555],[130.97224,-12.42554],[130.97222,-12.42554],[130.9722,-12.42553],[130.97218,-12.42553],[130.97216,-12.42552],[130.97214,-12.42552],[130.97213,-12.42553],[130.97211,-12.42553],[130.97209,-12.42553],[130.97208,-12.42554],[130.97206,-12.42555],[130.97204,-12.42556],[130.97203,-12.42557],[130.97201,-12.42558],[130.972,-12.42559],[130.97198,-12.4256],[130.97197,-12.42561],[130.97196,-12.42562],[130.97195,-12.42563],[130.97195,-12.42565],[130.97194,-12.42566],[130.97194,-12.42567],[130.97194,-12.42568],[130.97194,-12.4257],[130.97195,-12.42571],[130.97196,-12.42572],[130.97197,-12.42573],[130.97198,-12.42574],[130.97199,-12.42575],[130.97201,-12.42576],[130.97202,-12.42577],[130.97204,-12.42578],[130.97205,-12.42578],[130.97207,-12.42579],[130.97209,-12.4258],[130.97211,-12.4258],[130.97212,-12.4258],[130.97214,-12.42581],[130.97216,-12.42581]]]}},{"type":"Feature","properties":{"base":"RAAF Base Darwin","band":"40+","bandMin":40},"geometry":{"type":"Polygon","coordinates":[[[130.88419,-12.41254],[130.87701,-12.40987],[130.87201,-12.40916],[130.86592,-12.4065],[130.86439,-12.40695],[130.86329,-12.40809],[130.86312,-12.41034],[130.86375,-12.41121],[130.86568,-12.4126],[130.87051,-12.41329],[130.87285,-12.41558],[130.88888,-12.42037],[130.89276,-12.42248],[130.89505,-12.42285],[130.89708,-12.42135],[130.89748,-12.42009],[130.89733,-12.41777],[130.89658,-12.41613],[130.89154,-12.41548],[130.88454,-12.41266],[130.88419,-12.41254]]]}}]}