{"type":"FeatureCollection","name":"RAAF Base Edinburgh ANEF (Defence)","attribution":"Department of Defence, Defence Airfields ANEF, CC BY 3.0 AU (data.gov.au)","features":[{"type":"Feature","properties":{"base":"RAAF Base Edinburgh","band":"20-25","bandMin":20},"geometry":{"type":"Polygon","coordinates":[[[138.61289,-34.74047],[138.61499,-34.73738],[138.61841,-34.72956],[138.61987,-34.7237],[138.62344,-34.71736],[138.62404,-34.70738],[138.62776,-34.6967],[138.62694,-34.69207],[138.62405,-34.68741],[138.62453,-34.68255],[138.62463,-34.66975],[138.62437,-34.66232],[138.62366,-34.66018],[138.62076,-34.66442],[138.61728,-34.66595],[138.61523,-34.66778],[138.61615,-34.67727],[138.61423,-34.68568],[138.6133,-34.687],[138.6095,-34.69004],[138.60711,-34.69433],[138.60708,-34.70373],[138.60625,-34.70602],[138.60431,-34.70752],[138.60532,-34.70908],[138.60385,-34.71494],[138.60495,-34.72239],[138.6037,-34.73056],[138.60277,-34.73259],[138.59909,-34.73661],[138.59445,-34.73909],[138.58759,-34.7407],[138.57643,-34.74064],[138.57476,-34.74147],[138.57429,-34.74254],[138.57578,-34.74538],[138.58008,-34.74803],[138.58486,-34.74956],[138.59105,-34.75006],[138.59728,-34.74918],[138.6023,-34.74745],[138.60854,-34.74441],[138.61241,-34.7409],[138.61289,-34.74047]]]}},{"type":"Feature","properties":{"base":"RAAF Base Edinburgh","band":"25-30","bandMin":25},"geometry":{"type":"Polygon","coordinates":[[[138.598,-34.7456],[138.60094,-34.7451],[138.60489,-34.7434],[138.60912,-34.74039],[138.61145,-34.73788],[138.61593,-34.72977],[138.61733,-34.72288],[138.62072,-34.71654],[138.62142,-34.70554],[138.62469,-34.69613],[138.62403,-34.69264],[138.6218,-34.68967],[138.62281,-34.68249],[138.62215,-34.67015],[138.62152,-34.67024],[138.6203,-34.67161],[138.61874,-34.67476],[138.6154,-34.68878],[138.61214,-34.69128],[138.6102,-34.69492],[138.61008,-34.70404],[138.60689,-34.71474],[138.60784,-34.72167],[138.60667,-34.7278],[138.60641,-34.73189],[138.60363,-34.7367],[138.59592,-34.74409],[138.59596,-34.74526],[138.59769,-34.74561],[138.598,-34.7456]]]}},{"type":"Feature","properties":{"base":"RAAF Base Edinburgh","band":"30-35","bandMin":30},"geometry":{"type":"Polygon","coordinates":[[[138.60689,-34.73866],[138.61037,-34.73615],[138.61415,-34.72999],[138.6162,-34.72081],[138.61844,-34.71701],[138.61898,-34.71523],[138.61959,-34.70603],[138.62253,-34.69583],[138.62197,-34.693],[138.62026,-34.69118],[138.62146,-34.68224],[138.62038,-34.67804],[138.61821,-34.68166],[138.6163,-34.69056],[138.61399,-34.69208],[138.6124,-34.69505],[138.61182,-34.70433],[138.60895,-34.71478],[138.60971,-34.71992],[138.60836,-34.72809],[138.60845,-34.73167],[138.60646,-34.73778],[138.60658,-34.73869],[138.60689,-34.73866]]]}},{"type":"Feature","properties":{"base":"RAAF Base Edinburgh","band":"35-40","bandMin":35},"geometry":{"type":"Polygon","coordinates":[[[138.61926,-34.69167],[138.62026,-34.68375],[138.61997,-34.68143],[138.619,-34.68304],[138.61702,-34.69163],[138.61479,-34.69287],[138.61365,-34.69598],[138.61281,-34.70475],[138.61026,-34.71532],[138.61107,-34.71969],[138.6097,-34.72888],[138.61049,-34.73203],[138.613,-34.72946],[138.61507,-34.72002],[138.61739,-34.71607],[138.61869,-34.70523],[138.62114,-34.69555],[138.62081,-34.69324],[138.61925,-34.69193],[138.61926,-34.69167]]]}},{"type":"Feature","properties":{"base":"RAAF Base Edinburgh","band":"40+","bandMin":40},"geometry":{"type":"Polygon","coordinates":[[[138.61854,-34.69268],[138.61887,-34.68759],[138.61737,-34.69266],[138.61589,-34.69289],[138.6148,-34.6954],[138.61359,-34.70514],[138.61124,-34.71559],[138.6113,-34.71739],[138.61205,-34.71894],[138.61103,-34.72711],[138.61118,-34.72958],[138.61214,-34.72832],[138.61435,-34.71924],[138.61561,-34.71798],[138.61639,-34.71595],[138.61774,-34.70583],[138.62017,-34.69527],[138.61994,-34.69345],[138.61866,-34.69294],[138.61854,-34.69268]]]}}]}