{"type":"FeatureCollection","name":"RAAF Base Tindal ANEF (Defence)","attribution":"Department of Defence, Defence Airfields ANEF, CC BY 3.0 AU (data.gov.au)","features":[{"type":"Feature","properties":{"base":"RAAF Base Tindal","band":"20-25","bandMin":20},"geometry":{"type":"Polygon","coordinates":[[[132.34958,-14.47743],[132.34257,-14.47139],[132.31032,-14.4382],[132.29847,-14.42789],[132.29689,-14.42721],[132.29479,-14.42716],[132.29451,-14.4278],[132.29519,-14.42972],[132.29925,-14.43406],[132.30497,-14.44204],[132.31838,-14.45882],[132.32121,-14.46424],[132.32403,-14.46835],[132.32744,-14.47515],[132.33231,-14.48268],[132.33512,-14.49003],[132.33322,-14.49872],[132.3332,-14.50103],[132.33575,-14.50731],[132.35861,-14.53406],[132.36721,-14.5421],[132.38184,-14.55876],[132.38608,-14.56251],[132.39172,-14.56493],[132.39461,-14.5648],[132.40164,-14.5632],[132.40344,-14.56334],[132.40999,-14.5673],[132.41988,-14.57153],[132.43233,-14.58163],[132.44423,-14.59332],[132.44519,-14.59355],[132.44571,-14.59245],[132.44518,-14.59059],[132.42182,-14.56358],[132.41372,-14.54953],[132.39526,-14.52548],[132.38321,-14.51325],[132.37309,-14.50029],[132.35028,-14.4782],[132.34958,-14.47743]],[[132.33768,-14.50108],[132.33688,-14.5009],[132.33619,-14.49955],[132.33651,-14.49643],[132.33842,-14.49253],[132.34156,-14.48871],[132.34175,-14.48745],[132.34144,-14.48543],[132.33788,-14.47884],[132.33784,-14.4778],[132.34138,-14.48003],[132.34746,-14.48187],[132.35558,-14.48865],[132.37261,-14.50493],[132.38183,-14.51688],[132.39125,-14.52604],[132.4088,-14.54965],[132.40938,-14.55454],[132.41174,-14.5599],[132.40653,-14.55723],[132.40522,-14.55706],[132.40392,-14.55733],[132.40003,-14.55987],[132.39597,-14.56118],[132.39419,-14.56156],[132.39041,-14.5606],[132.38951,-14.55966],[132.38983,-14.55864],[132.39464,-14.55726],[132.39616,-14.55601],[132.39691,-14.55449],[132.397,-14.55308],[132.39435,-14.54868],[132.38574,-14.5408],[132.37753,-14.53502],[132.37445,-14.53401],[132.37413,-14.52934],[132.37323,-14.52666],[132.36963,-14.5227],[132.36348,-14.519],[132.35872,-14.51266],[132.35491,-14.50622],[132.3505,-14.50061],[132.34746,-14.49754],[132.34636,-14.49692],[132.34414,-14.49667],[132.34005,-14.5005],[132.33801,-14.5011],[132.33768,-14.50108]]]}},{"type":"Feature","properties":{"base":"RAAF Base Tindal","band":"25-30","bandMin":25},"geometry":{"type":"Polygon","coordinates":[[[132.34295,-14.4806],[132.33803,-14.47784],[132.33762,-14.478],[132.34144,-14.48543],[132.34175,-14.48745],[132.34156,-14.48871],[132.33842,-14.49253],[132.33651,-14.49643],[132.33613,-14.49918],[132.3368,-14.50081],[132.33939,-14.50087],[132.34414,-14.49667],[132.34636,-14.49692],[132.34746,-14.49754],[132.3505,-14.50061],[132.35491,-14.50622],[132.35872,-14.51266],[132.36348,-14.519],[132.36963,-14.5227],[132.37323,-14.52666],[132.37413,-14.52934],[132.37445,-14.53401],[132.37753,-14.53502],[132.38574,-14.5408],[132.39435,-14.54868],[132.397,-14.55308],[132.39691,-14.55449],[132.39616,-14.55601],[132.39464,-14.55726],[132.38983,-14.55864],[132.38951,-14.55966],[132.39041,-14.5606],[132.39419,-14.56156],[132.39597,-14.56118],[132.40003,-14.55987],[132.40392,-14.55733],[132.40522,-14.55706],[132.40653,-14.55723],[132.41174,-14.5599],[132.40938,-14.55454],[132.4088,-14.54965],[132.39125,-14.52604],[132.38183,-14.51688],[132.37056,-14.50277],[132.35558,-14.48865],[132.34746,-14.48187],[132.34576,-14.48106],[132.3434,-14.48076],[132.34295,-14.4806]],[[132.3511,-14.49642],[132.3486,-14.49419],[132.34497,-14.4922],[132.34558,-14.49068],[132.3479,-14.48881],[132.3493,-14.48883],[132.35178,-14.4909],[132.35511,-14.49242],[132.36499,-14.50218],[132.37057,-14.50637],[132.37977,-14.51817],[132.38982,-14.52806],[132.39296,-14.53382],[132.40056,-14.5434],[132.40351,-14.54916],[132.40383,-14.55107],[132.40294,-14.55211],[132.40195,-14.55267],[132.40131,-14.55245],[132.39637,-14.54632],[132.38745,-14.53805],[132.38178,-14.53426],[132.37842,-14.53039],[132.37327,-14.5231],[132.36245,-14.51268],[132.35935,-14.50698],[132.35181,-14.49726],[132.3511,-14.49642]]]}},{"type":"Feature","properties":{"base":"RAAF Base Tindal","band":"30-35","bandMin":30},"geometry":{"type":"Polygon","coordinates":[[[132.3566,-14.49405],[132.35511,-14.49242],[132.35178,-14.4909],[132.34891,-14.48864],[132.34638,-14.48989],[132.3449,-14.49167],[132.34542,-14.49264],[132.3486,-14.49419],[132.3511,-14.49642],[132.35935,-14.50698],[132.36245,-14.51268],[132.37327,-14.5231],[132.37842,-14.53039],[132.38178,-14.53426],[132.38745,-14.53805],[132.39637,-14.54632],[132.40131,-14.55245],[132.40195,-14.55267],[132.40294,-14.55211],[132.40383,-14.55107],[132.40351,-14.54916],[132.40056,-14.5434],[132.39296,-14.53382],[132.38982,-14.52806],[132.37977,-14.51817],[132.37057,-14.50637],[132.36499,-14.50218],[132.35739,-14.49489],[132.3566,-14.49405]],[[132.38529,-14.53453],[132.38239,-14.5324],[132.37409,-14.52222],[132.36374,-14.51157],[132.36272,-14.50817],[132.35342,-14.49592],[132.35259,-14.49469],[132.35278,-14.49417],[132.35508,-14.49553],[132.36536,-14.50567],[132.36899,-14.50735],[132.37846,-14.51876],[132.38856,-14.52914],[132.38935,-14.53075],[132.38937,-14.53277],[132.39814,-14.54481],[132.39326,-14.54087],[132.38758,-14.53519],[132.38591,-14.53456],[132.38529,-14.53453]]]}},{"type":"Feature","properties":{"base":"RAAF Base Tindal","band":"35-40","bandMin":35},"geometry":{"type":"Polygon","coordinates":[[[132.36195,-14.50221],[132.35508,-14.49553],[132.35264,-14.49431],[132.35372,-14.49633],[132.36272,-14.50817],[132.36374,-14.51157],[132.37409,-14.52222],[132.38239,-14.5324],[132.38423,-14.53404],[132.38726,-14.53493],[132.39326,-14.54087],[132.39814,-14.54481],[132.38937,-14.53277],[132.38935,-14.53075],[132.38856,-14.52914],[132.37846,-14.51876],[132.36899,-14.50735],[132.36754,-14.50636],[132.36553,-14.50578],[132.36293,-14.50317],[132.36195,-14.50221]],[[132.38523,-14.53331],[132.38386,-14.53233],[132.37503,-14.52182],[132.36479,-14.51089],[132.36447,-14.50987],[132.36481,-14.50864],[132.36016,-14.5024],[132.36599,-14.50795],[132.36699,-14.50769],[132.36821,-14.50807],[132.37775,-14.51949],[132.38699,-14.52906],[132.38799,-14.53035],[132.38779,-14.53267],[132.39041,-14.5363],[132.38707,-14.53334],[132.38543,-14.53333],[132.38523,-14.53331]]]}},{"type":"Feature","properties":{"base":"RAAF Base Tindal","band":"40+","bandMin":40},"geometry":{"type":"Polygon","coordinates":[[[132.36599,-14.50795],[132.3601,-14.50245],[132.36481,-14.50864],[132.36447,-14.50987],[132.36479,-14.51089],[132.37503,-14.52182],[132.38386,-14.53233],[132.385,-14.53325],[132.38707,-14.53334],[132.39041,-14.5363],[132.38779,-14.53267],[132.38804,-14.53068],[132.38743,-14.52956],[132.37775,-14.51949],[132.36821,-14.50807],[132.36699,-14.50769],[132.36623,-14.508],[132.36599,-14.50795]]]}}]}