{"type":"FeatureCollection","name":"RAAF Base Townsville ANEF (Defence)","attribution":"Department of Defence, Defence Airfields ANEF, CC BY 3.0 AU (data.gov.au)","features":[{"type":"Feature","properties":{"base":"RAAF Base Townsville","band":"20-25","bandMin":20},"geometry":{"type":"Polygon","coordinates":[[[146.82598,-19.13066],[146.82687,-19.12902],[146.82647,-19.12897],[146.82587,-19.13019],[146.82598,-19.13066]]]}},{"type":"Feature","properties":{"base":"RAAF Base Townsville","band":"20-25","bandMin":20},"geometry":{"type":"Polygon","coordinates":[[[146.82037,-19.14224],[146.82155,-19.14062],[146.8226,-19.13774],[146.82034,-19.14186],[146.82037,-19.14224]]]}},{"type":"Feature","properties":{"base":"RAAF Base Townsville","band":"20-25","bandMin":20},"geometry":{"type":"Polygon","coordinates":[[[146.79335,-19.1889],[146.79158,-19.18796],[146.79059,-19.18823],[146.78729,-19.19269],[146.7851,-19.19418],[146.78374,-19.20036],[146.7815,-19.20471],[146.77746,-19.20877],[146.77008,-19.21372],[146.76752,-19.21681],[146.76163,-19.22759],[146.75724,-19.2396],[146.7522,-19.24874],[146.74926,-19.2514],[146.74291,-19.25346],[146.74229,-19.25632],[146.73647,-19.26101],[146.73721,-19.26203],[146.74084,-19.26386],[146.74273,-19.26617],[146.74272,-19.27071],[146.74498,-19.274],[146.74844,-19.27732],[146.74914,-19.27924],[146.74872,-19.283],[146.74413,-19.29554],[146.74023,-19.30881],[146.74035,-19.31006],[146.74204,-19.30861],[146.75684,-19.28502],[146.76023,-19.28295],[146.76711,-19.28398],[146.76847,-19.28316],[146.76716,-19.27875],[146.76778,-19.27629],[146.77084,-19.27265],[146.776,-19.26803],[146.7798,-19.26332],[146.78207,-19.25909],[146.78619,-19.24831],[146.79139,-19.23927],[146.79449,-19.23174],[146.79582,-19.22645],[146.79591,-19.22274],[146.79509,-19.21614],[146.79584,-19.21019],[146.79692,-19.20756],[146.80108,-19.20201],[146.79932,-19.19921],[146.7985,-19.19361],[146.79418,-19.18961],[146.79335,-19.1889]],[[146.79169,-19.20307],[146.79255,-19.20407],[146.79263,-19.20505],[146.79071,-19.21388],[146.79148,-19.22295],[146.7905,-19.22868],[146.78809,-19.2352],[146.78448,-19.24266],[146.77932,-19.25089],[146.77675,-19.25891],[146.77313,-19.26451],[146.76766,-19.26933],[146.76585,-19.27158],[146.76234,-19.27848],[146.75837,-19.28024],[146.75635,-19.28167],[146.75178,-19.28789],[146.75011,-19.28929],[146.75003,-19.28752],[146.75204,-19.27899],[146.75188,-19.27699],[146.75067,-19.27401],[146.75387,-19.26573],[146.75393,-19.2615],[146.75307,-19.2593],[146.75185,-19.25851],[146.74811,-19.2584],[146.74514,-19.25901],[146.74458,-19.25857],[146.74698,-19.25538],[146.75328,-19.25373],[146.75625,-19.25133],[146.76119,-19.24328],[146.76382,-19.23407],[146.76798,-19.22549],[146.77126,-19.2199],[146.77459,-19.21585],[146.78252,-19.21036],[146.78781,-19.20425],[146.78886,-19.2034],[146.79077,-19.20294],[146.79169,-19.20307]]]}},{"type":"Feature","properties":{"base":"RAAF Base Townsville","band":"25-30","bandMin":25},"geometry":{"type":"Polygon","coordinates":[[[146.79169,-19.20307],[146.78886,-19.2034],[146.78252,-19.21036],[146.77353,-19.21695],[146.77022,-19.22144],[146.7655,-19.23048],[146.76314,-19.23586],[146.76119,-19.24328],[146.75806,-19.24882],[146.75441,-19.25315],[146.75201,-19.25424],[146.74698,-19.25538],[146.74458,-19.25857],[146.74514,-19.25901],[146.74811,-19.2584],[146.75185,-19.25851],[146.75307,-19.2593],[146.75393,-19.2615],[146.75387,-19.26573],[146.75067,-19.27401],[146.75188,-19.27699],[146.75204,-19.27899],[146.75003,-19.28752],[146.75011,-19.28929],[146.75178,-19.28789],[146.75635,-19.28167],[146.75837,-19.28024],[146.76234,-19.27848],[146.76585,-19.27158],[146.76766,-19.26933],[146.77313,-19.26451],[146.77675,-19.25891],[146.77932,-19.25089],[146.78448,-19.24266],[146.78809,-19.2352],[146.7905,-19.22868],[146.79148,-19.22295],[146.79071,-19.21388],[146.79117,-19.21042],[146.79249,-19.20604],[146.79223,-19.20341],[146.79169,-19.20307]],[[146.78817,-19.22488],[146.78678,-19.22991],[146.78194,-19.24119],[146.77944,-19.24576],[146.77631,-19.24991],[146.7746,-19.25586],[146.77265,-19.25982],[146.77008,-19.26354],[146.76517,-19.26782],[146.76013,-19.27639],[146.75552,-19.27925],[146.75457,-19.27922],[146.75376,-19.2737],[146.75724,-19.26361],[146.75717,-19.26105],[146.75633,-19.2583],[146.75177,-19.25645],[146.75772,-19.25378],[146.76107,-19.24976],[146.76328,-19.24603],[146.76489,-19.23937],[146.76701,-19.23433],[146.77191,-19.22479],[146.77665,-19.21811],[146.78496,-19.21296],[146.78649,-19.21278],[146.78702,-19.21361],[146.78839,-19.2208],[146.78829,-19.22419],[146.78817,-19.22488]]]}},{"type":"Feature","properties":{"base":"RAAF Base Townsville","band":"30-35","bandMin":30},"geometry":{"type":"Polygon","coordinates":[[[146.78817,-19.22488],[146.78839,-19.2208],[146.78702,-19.21361],[146.78649,-19.21278],[146.78496,-19.21296],[146.77665,-19.21811],[146.77191,-19.22479],[146.76701,-19.23433],[146.76489,-19.23937],[146.76328,-19.24603],[146.76107,-19.24976],[146.75772,-19.25378],[146.75177,-19.25645],[146.75633,-19.2583],[146.75717,-19.26105],[146.75724,-19.26361],[146.75376,-19.2737],[146.75457,-19.27922],[146.75552,-19.27925],[146.76013,-19.27639],[146.76517,-19.26782],[146.76935,-19.26425],[146.77132,-19.26195],[146.77424,-19.2568],[146.77631,-19.24991],[146.77944,-19.24576],[146.78194,-19.24119],[146.7879,-19.22641],[146.78817,-19.22488]],[[146.7822,-19.23447],[146.77897,-19.2426],[146.77418,-19.24947],[146.77274,-19.25514],[146.76955,-19.26084],[146.76506,-19.26475],[146.75939,-19.27422],[146.75789,-19.27546],[146.75662,-19.27569],[146.75582,-19.27437],[146.7559,-19.27251],[146.75956,-19.26124],[146.75871,-19.25778],[146.75541,-19.25651],[146.75512,-19.25552],[146.76015,-19.25403],[146.76151,-19.25265],[146.76521,-19.24656],[146.76739,-19.23829],[146.77542,-19.22356],[146.77948,-19.21868],[146.78358,-19.21691],[146.78489,-19.21751],[146.78552,-19.2185],[146.78607,-19.22286],[146.78497,-19.22765],[146.78261,-19.23355],[146.7822,-19.23447]]]}},{"type":"Feature","properties":{"base":"RAAF Base Townsville","band":"35-40","bandMin":35},"geometry":{"type":"Polygon","coordinates":[[[146.7822,-19.23447],[146.78497,-19.22765],[146.78607,-19.22286],[146.78552,-19.2185],[146.78489,-19.21751],[146.78358,-19.21691],[146.77948,-19.21868],[146.77542,-19.22356],[146.76739,-19.23829],[146.76521,-19.24656],[146.76151,-19.25265],[146.76015,-19.25403],[146.75512,-19.25552],[146.75541,-19.25651],[146.75871,-19.25778],[146.75956,-19.26124],[146.7559,-19.27251],[146.75582,-19.27437],[146.75662,-19.27569],[146.75789,-19.27546],[146.75939,-19.27422],[146.76506,-19.26475],[146.76955,-19.26084],[146.77274,-19.25514],[146.77418,-19.24947],[146.77897,-19.2426],[146.78135,-19.23658],[146.7822,-19.23447]],[[146.77883,-19.23827],[146.77648,-19.24396],[146.77213,-19.25078],[146.77188,-19.25383],[146.77035,-19.25556],[146.76808,-19.26017],[146.7675,-19.26098],[146.76493,-19.26238],[146.76014,-19.26984],[146.75887,-19.27057],[146.75963,-19.26631],[146.76141,-19.26092],[146.76059,-19.25788],[146.7593,-19.25735],[146.75899,-19.25672],[146.76139,-19.25594],[146.76222,-19.25389],[146.76476,-19.25022],[146.76613,-19.24757],[146.76876,-19.23912],[146.77749,-19.22375],[146.77987,-19.22087],[146.78135,-19.21986],[146.78291,-19.21961],[146.78363,-19.22011],[146.78416,-19.2214],[146.78409,-19.22364],[146.78265,-19.22873],[146.77932,-19.23705],[146.77883,-19.23827]]]}},{"type":"Feature","properties":{"base":"RAAF Base Townsville","band":"40+","bandMin":40},"geometry":{"type":"Polygon","coordinates":[[[146.77883,-19.23827],[146.78382,-19.22488],[146.78416,-19.2214],[146.78363,-19.22011],[146.78291,-19.21961],[146.78135,-19.21986],[146.77987,-19.22087],[146.77749,-19.22375],[146.76876,-19.23912],[146.76613,-19.24757],[146.76476,-19.25022],[146.76222,-19.25389],[146.76139,-19.25594],[146.75899,-19.25672],[146.7593,-19.25735],[146.76059,-19.25788],[146.76141,-19.26092],[146.75963,-19.26631],[146.75887,-19.27057],[146.76014,-19.26984],[146.76493,-19.26238],[146.7675,-19.26098],[146.76808,-19.26017],[146.77035,-19.25556],[146.77188,-19.25383],[146.77213,-19.25078],[146.77648,-19.24396],[146.77828,-19.2397],[146.77883,-19.23827]]]}},{"type":"Feature","properties":{"base":"RAAF Base Townsville","band":"40+","bandMin":40},"geometry":{"type":"Polygon","coordinates":[[[146.75733,-19.25618],[146.75892,-19.25551],[146.75735,-19.25595],[146.75733,-19.25618]]]}},{"type":"Feature","properties":{"base":"RAAF Base Townsville","band":"40+","bandMin":40},"geometry":{"type":"Polygon","coordinates":[[[146.75944,-19.25483],[146.7601,-19.2547],[146.75948,-19.25468],[146.75944,-19.25483]]]}},{"type":"Feature","properties":{"base":"RAAF Base Townsville","band":"40+","bandMin":40},"geometry":{"type":"Polygon","coordinates":[[[146.75709,-19.25547],[146.75537,-19.25585],[146.75678,-19.25568],[146.75709,-19.25547]]]}},{"type":"Feature","properties":{"base":"RAAF Base Townsville","band":"40+","bandMin":40},"geometry":{"type":"Polygon","coordinates":[[[146.75709,-19.25547],[146.75537,-19.25585],[146.75678,-19.25568],[146.75709,-19.25547]]]}}]}