{"type":"FeatureCollection","name":"RAAF Base Point Cook ANEF (Defence)","attribution":"Department of Defence, Defence Airfields ANEF, CC BY 3.0 AU (data.gov.au)","features":[{"type":"Feature","properties":{"base":"RAAF Base Point Cook","band":"15-20","bandMin":15},"geometry":{"type":"Polygon","coordinates":[[[144.78123,-37.95405],[144.78404,-37.95049],[144.78484,-37.93675],[144.7836,-37.93206],[144.78233,-37.92322],[144.78211,-37.91715],[144.78069,-37.91176],[144.77924,-37.90265],[144.77832,-37.90001],[144.77668,-37.89776],[144.77493,-37.89662],[144.77233,-37.89602],[144.77014,-37.89723],[144.77151,-37.90092],[144.77444,-37.90278],[144.77526,-37.90476],[144.77575,-37.90924],[144.77559,-37.9131],[144.77353,-37.91765],[144.77505,-37.91955],[144.77514,-37.92236],[144.77677,-37.92566],[144.77782,-37.92982],[144.77811,-37.93347],[144.77776,-37.93714],[144.77625,-37.94298],[144.77814,-37.9453],[144.7791,-37.94819],[144.77787,-37.9516],[144.77661,-37.95319],[144.77445,-37.95408],[144.7715,-37.9542],[144.76702,-37.95319],[144.76523,-37.95136],[144.76261,-37.95026],[144.7613,-37.94889],[144.76044,-37.94648],[144.75884,-37.93667],[144.75886,-37.93582],[144.76012,-37.93489],[144.76014,-37.93417],[144.75879,-37.93332],[144.7586,-37.93264],[144.75907,-37.93095],[144.76021,-37.9293],[144.76996,-37.92037],[144.76792,-37.92048],[144.75964,-37.92456],[144.75782,-37.92436],[144.75622,-37.91388],[144.75462,-37.90847],[144.75381,-37.90365],[144.75704,-37.89939],[144.76144,-37.89751],[144.75653,-37.89718],[144.75276,-37.89809],[144.75091,-37.89941],[144.75001,-37.9008],[144.74898,-37.90588],[144.74844,-37.91523],[144.74974,-37.92682],[144.74925,-37.93046],[144.7473,-37.9324],[144.74329,-37.93443],[144.74235,-37.93588],[144.7327,-37.94392],[144.72998,-37.9479],[144.72967,-37.94914],[144.72998,-37.95064],[144.73059,-37.95085],[144.73398,-37.94768],[144.7415,-37.94338],[144.74823,-37.9388],[144.74973,-37.93838],[144.75049,-37.93948],[144.75135,-37.94695],[144.75319,-37.95344],[144.75464,-37.95708],[144.75565,-37.95812],[144.75766,-37.95849],[144.76485,-37.95812],[144.77668,-37.95621],[144.78088,-37.95437],[144.78123,-37.95405]],[[144.75825,-37.93484],[144.75722,-37.93532],[144.75702,-37.94441],[144.75665,-37.94743],[144.75599,-37.94848],[144.75525,-37.94787],[144.75432,-37.9456],[144.75146,-37.93596],[144.75007,-37.93611],[144.74279,-37.94019],[144.73992,-37.94115],[144.74109,-37.93942],[144.746,-37.93466],[144.75076,-37.93076],[144.75116,-37.92891],[144.75092,-37.92418],[144.75135,-37.91671],[144.75221,-37.9135],[144.75365,-37.91613],[144.75644,-37.92679],[144.75756,-37.92752],[144.75999,-37.92682],[144.75822,-37.9291],[144.75707,-37.9321],[144.75733,-37.93391],[144.75984,-37.93452],[144.7585,-37.93482],[144.75825,-37.93484]]]}},{"type":"Feature","properties":{"base":"RAAF Base Point Cook","band":"20-25","bandMin":20},"geometry":{"type":"Polygon","coordinates":[[[144.75537,-37.92249],[144.75324,-37.915],[144.75261,-37.91373],[144.75207,-37.91355],[144.75135,-37.91671],[144.75092,-37.92418],[144.75116,-37.92891],[144.75076,-37.93076],[144.746,-37.93466],[144.73991,-37.94102],[144.74279,-37.94019],[144.75007,-37.93611],[144.75146,-37.93596],[144.75432,-37.9456],[144.75525,-37.94787],[144.75599,-37.94848],[144.75665,-37.94743],[144.75702,-37.94441],[144.75722,-37.93532],[144.75984,-37.93452],[144.75733,-37.93391],[144.75707,-37.9321],[144.75822,-37.9291],[144.76001,-37.92694],[144.75756,-37.92752],[144.75676,-37.92725],[144.7555,-37.92284],[144.75537,-37.92249]],[[144.74632,-37.93699],[144.74582,-37.93648],[144.74612,-37.93593],[144.75188,-37.93102],[144.75212,-37.92426],[144.75331,-37.92261],[144.75453,-37.92392],[144.7555,-37.92811],[144.75699,-37.92962],[144.75605,-37.93145],[144.75599,-37.93388],[144.75964,-37.9345],[144.7563,-37.93471],[144.75493,-37.93892],[144.75354,-37.937],[144.7529,-37.93507],[144.75215,-37.93458],[144.75086,-37.93473],[144.74652,-37.93701],[144.74632,-37.93699]]]}},{"type":"Feature","properties":{"base":"RAAF Base Point Cook","band":"25-30","bandMin":25},"geometry":{"type":"Polygon","coordinates":[[[144.75453,-37.92392],[144.7532,-37.92258],[144.7523,-37.92368],[144.75188,-37.93102],[144.74612,-37.93593],[144.74582,-37.93648],[144.74615,-37.93689],[144.74705,-37.93688],[144.75086,-37.93473],[144.75215,-37.93458],[144.7529,-37.93507],[144.75354,-37.937],[144.75493,-37.93892],[144.7563,-37.93471],[144.75964,-37.9345],[144.75599,-37.93388],[144.75605,-37.93145],[144.75699,-37.92962],[144.7555,-37.92811],[144.75463,-37.92419],[144.75453,-37.92392]],[[144.75353,-37.92398],[144.75403,-37.92452],[144.75485,-37.92908],[144.75634,-37.9298],[144.75517,-37.93132],[144.75513,-37.93413],[144.75875,-37.9345],[144.75517,-37.93467],[144.75518,-37.93641],[144.75434,-37.93678],[144.75343,-37.93305],[144.75295,-37.93268],[144.74657,-37.93651],[144.75285,-37.931],[144.75278,-37.92451],[144.75346,-37.92401],[144.75353,-37.92398]]]}},{"type":"Feature","properties":{"base":"RAAF Base Point Cook","band":"30-35","bandMin":30},"geometry":{"type":"Polygon","coordinates":[[[144.75372,-37.92395],[144.75298,-37.924],[144.75278,-37.92451],[144.75285,-37.931],[144.74657,-37.93651],[144.75295,-37.93268],[144.75343,-37.93305],[144.75434,-37.93678],[144.75518,-37.93641],[144.75517,-37.93467],[144.75875,-37.9345],[144.75513,-37.93413],[144.75517,-37.93132],[144.75634,-37.9298],[144.75485,-37.92908],[144.75382,-37.92403],[144.75372,-37.92395]],[[144.75091,-37.9332],[144.75367,-37.9308],[144.75335,-37.92413],[144.75439,-37.93024],[144.75599,-37.92978],[144.75451,-37.93117],[144.7544,-37.93486],[144.75364,-37.93188],[144.75081,-37.93331],[144.75091,-37.9332]]]}},{"type":"Feature","properties":{"base":"RAAF Base Point Cook","band":"35-40","bandMin":35},"geometry":{"type":"Polygon","coordinates":[[[144.75448,-37.93032],[144.75359,-37.9243],[144.75325,-37.92414],[144.75367,-37.9308],[144.75081,-37.93331],[144.75364,-37.93188],[144.7544,-37.93486],[144.75451,-37.93117],[144.75598,-37.92971],[144.75457,-37.93032],[144.75448,-37.93032]]]}},{"type":"Feature","properties":{"base":"RAAF Base Point Cook","band":"35-40","bandMin":35},"geometry":{"type":"Polygon","coordinates":[[[144.74676,-37.9364],[144.75013,-37.93381],[144.74667,-37.93641],[144.74676,-37.9364]]]}},{"type":"Feature","properties":{"base":"RAAF Base Point Cook","band":"35-40","bandMin":35},"geometry":{"type":"Polygon","coordinates":[[[144.7572,-37.93453],[144.75574,-37.93445],[144.757,-37.93457],[144.7572,-37.93453]]]}},{"type":"Feature","properties":{"base":"RAAF Base Point Cook","band":"35-40","bandMin":35},"geometry":{"type":"Polygon","coordinates":[[[144.75487,-37.93655],[144.75437,-37.93498],[144.75437,-37.93648],[144.75483,-37.93665],[144.75487,-37.93655]]]}}]}