{"type":"FeatureCollection","name":"RAAF Base Gingin ANEF (Defence)","attribution":"Department of Defence, Defence Airfields ANEF, CC BY 3.0 AU (data.gov.au)","features":[{"type":"Feature","properties":{"base":"RAAF Base Gingin","band":"20-25","bandMin":20},"geometry":{"type":"Polygon","coordinates":[[[115.88639,-31.45986],[115.88746,-31.45907],[115.88742,-31.45855],[115.88274,-31.4584],[115.87139,-31.46012],[115.85266,-31.46464],[115.84337,-31.46785],[115.84129,-31.46939],[115.84462,-31.46966],[115.85505,-31.46833],[115.87316,-31.46433],[115.88608,-31.46002],[115.88639,-31.45986]],[[115.84832,-31.46809],[115.84758,-31.46788],[115.85418,-31.46492],[115.87169,-31.46084],[115.87843,-31.46],[115.88085,-31.46032],[115.87879,-31.4616],[115.87103,-31.46409],[115.85445,-31.46777],[115.84863,-31.4681],[115.84832,-31.46809]]]}},{"type":"Feature","properties":{"base":"RAAF Base Gingin","band":"25-30","bandMin":25},"geometry":{"type":"Polygon","coordinates":[[[115.87964,-31.46122],[115.88085,-31.46032],[115.87843,-31.46],[115.87107,-31.46096],[115.85336,-31.46515],[115.84758,-31.46788],[115.85475,-31.46771],[115.87225,-31.46378],[115.87939,-31.46135],[115.87964,-31.46122]],[[115.85323,-31.46736],[115.85267,-31.4661],[115.85418,-31.46544],[115.87137,-31.46149],[115.87522,-31.46158],[115.87196,-31.46325],[115.85353,-31.46739],[115.85323,-31.46736]]]}},{"type":"Feature","properties":{"base":"RAAF Base Gingin","band":"30-35","bandMin":30},"geometry":{"type":"Polygon","coordinates":[[[115.87321,-31.4614],[115.86278,-31.46341],[115.85267,-31.4661],[115.85323,-31.46736],[115.85488,-31.46717],[115.87196,-31.46325],[115.87522,-31.46158],[115.87327,-31.46141],[115.87321,-31.4614]],[[115.8534,-31.46688],[115.85325,-31.4661],[115.86277,-31.46378],[115.87167,-31.46187],[115.87259,-31.46179],[115.87279,-31.46234],[115.85354,-31.46703],[115.8534,-31.46688]]]}},{"type":"Feature","properties":{"base":"RAAF Base Gingin","band":"35-40","bandMin":35},"geometry":{"type":"Polygon","coordinates":[[[115.87249,-31.46208],[115.87259,-31.46179],[115.87167,-31.46187],[115.86277,-31.46378],[115.85318,-31.46636],[115.85354,-31.46703],[115.85446,-31.4669],[115.87166,-31.46289],[115.87258,-31.46259],[115.87259,-31.46218],[115.87249,-31.46208]],[[115.86991,-31.46264],[115.87242,-31.46234],[115.85446,-31.4666],[115.85347,-31.46636],[115.86875,-31.4629],[115.86991,-31.46264]]]}},{"type":"Feature","properties":{"base":"RAAF Base Gingin","band":"40+","bandMin":40},"geometry":{"type":"Polygon","coordinates":[[[115.87105,-31.46271],[115.87242,-31.46234],[115.87167,-31.46214],[115.85347,-31.46636],[115.85446,-31.4666],[115.87074,-31.46281],[115.87105,-31.46271]]]}}]}