{"type":"FeatureCollection","name":"RAAF Base East Sale ANEF (Defence)","attribution":"Department of Defence, Defence Airfields ANEF, CC BY 3.0 AU (data.gov.au)","features":[{"type":"Feature","properties":{"base":"RAAF Base East Sale","band":"15-20","bandMin":15},"geometry":{"type":"Polygon","coordinates":[[[147.14471,-38.07672],[147.14246,-38.07572],[147.12486,-38.07254],[147.12298,-38.07243],[147.12046,-38.07301],[147.11946,-38.07374],[147.11732,-38.07777],[147.1104,-38.07835],[147.10982,-38.07895],[147.11206,-38.08094],[147.11574,-38.08058],[147.11731,-38.08098],[147.12046,-38.08452],[147.128,-38.08487],[147.13532,-38.08591],[147.13616,-38.08641],[147.12077,-38.08597],[147.11791,-38.08685],[147.11543,-38.08688],[147.11197,-38.08591],[147.11009,-38.08319],[147.106,-38.0861],[147.10285,-38.08667],[147.10097,-38.08626],[147.09846,-38.08447],[147.09688,-38.08415],[147.09531,-38.08489],[147.09395,-38.08666],[147.09358,-38.08838],[147.09389,-38.09136],[147.09606,-38.09435],[147.10159,-38.09756],[147.13118,-38.10504],[147.13145,-38.10603],[147.1301,-38.10852],[147.124,-38.11398],[147.12357,-38.11448],[147.1239,-38.11463],[147.14591,-38.10697],[147.17735,-38.1071],[147.19024,-38.10508],[147.19227,-38.10404],[147.19209,-38.1028],[147.19016,-38.10059],[147.18917,-38.09684],[147.18772,-38.09539],[147.18646,-38.09512],[147.18332,-38.09628],[147.18081,-38.09625],[147.17864,-38.09535],[147.17577,-38.09241],[147.17389,-38.09266],[147.17094,-38.09187],[147.17106,-38.09136],[147.17328,-38.09038],[147.17829,-38.08878],[147.18313,-38.08864],[147.18259,-38.08765],[147.17925,-38.08516],[147.18106,-38.08193],[147.18087,-38.08144],[147.1742,-38.08335],[147.172,-38.08356],[147.17106,-38.08274],[147.17043,-38.07906],[147.16697,-38.0772],[147.1588,-38.07629],[147.14874,-38.07596],[147.14686,-38.07606],[147.14497,-38.07676],[147.14471,-38.07672]],[[147.17263,-38.08601],[147.1742,-38.08566],[147.17336,-38.08666],[147.16377,-38.09287],[147.16315,-38.09386],[147.16319,-38.09485],[147.16517,-38.09585],[147.17389,-38.09735],[147.18301,-38.10026],[147.18479,-38.10156],[147.18476,-38.1028],[147.18144,-38.10398],[147.17641,-38.10476],[147.1478,-38.1042],[147.14492,-38.10504],[147.13365,-38.10999],[147.13181,-38.10976],[147.13223,-38.10852],[147.13727,-38.10454],[147.13829,-38.1033],[147.13813,-38.10256],[147.12799,-38.10112],[147.10536,-38.09602],[147.10051,-38.09385],[147.09897,-38.09236],[147.09862,-38.09137],[147.09894,-38.09062],[147.10002,-38.0901],[147.10945,-38.08903],[147.1173,-38.09013],[147.13114,-38.09045],[147.14434,-38.0927],[147.1544,-38.09288],[147.16226,-38.09119],[147.17232,-38.08613],[147.17263,-38.08601]]]}},{"type":"Feature","properties":{"base":"RAAF Base East Sale","band":"20-25","bandMin":20},"geometry":{"type":"Polygon","coordinates":[[[147.16477,-38.09212],[147.17336,-38.08666],[147.1742,-38.08566],[147.17169,-38.08642],[147.16194,-38.09131],[147.1544,-38.09288],[147.14434,-38.0927],[147.13114,-38.09045],[147.1173,-38.09013],[147.10945,-38.08903],[147.10002,-38.0901],[147.09894,-38.09062],[147.09862,-38.09137],[147.09897,-38.09236],[147.10051,-38.09385],[147.10536,-38.09602],[147.12799,-38.10112],[147.13813,-38.10256],[147.13829,-38.1033],[147.13727,-38.10454],[147.1324,-38.10827],[147.13208,-38.10994],[147.13459,-38.10974],[147.14492,-38.10504],[147.1478,-38.1042],[147.17641,-38.10476],[147.18219,-38.10379],[147.18496,-38.10255],[147.1846,-38.10131],[147.18263,-38.10012],[147.17389,-38.09735],[147.16383,-38.09537],[147.16308,-38.09411],[147.16446,-38.09234],[147.16477,-38.09212]],[[147.16212,-38.09237],[147.16243,-38.09237],[147.15997,-38.09585],[147.1601,-38.09635],[147.17578,-38.10016],[147.17863,-38.10131],[147.17904,-38.10206],[147.17735,-38.10276],[147.17421,-38.10302],[147.14874,-38.10243],[147.13491,-38.10807],[147.1423,-38.10231],[147.14294,-38.10131],[147.1412,-38.10072],[147.13585,-38.10045],[147.12705,-38.09915],[147.10756,-38.09466],[147.10469,-38.0936],[147.1036,-38.09261],[147.10505,-38.09178],[147.11071,-38.09134],[147.12863,-38.09203],[147.14371,-38.09423],[147.15251,-38.09472],[147.15503,-38.09439],[147.15912,-38.0928],[147.16194,-38.09245],[147.16212,-38.09237]]]}},{"type":"Feature","properties":{"base":"RAAF Base East Sale","band":"25-30","bandMin":25},"geometry":{"type":"Polygon","coordinates":[[[147.11228,-38.09145],[147.10568,-38.09167],[147.10393,-38.09211],[147.1036,-38.09261],[147.10469,-38.0936],[147.10756,-38.09466],[147.12705,-38.09915],[147.13585,-38.10045],[147.1412,-38.10072],[147.14294,-38.10131],[147.1423,-38.10231],[147.13491,-38.10807],[147.14874,-38.10243],[147.17452,-38.10301],[147.17798,-38.10261],[147.17908,-38.10181],[147.17527,-38.10001],[147.1601,-38.09635],[147.15997,-38.09585],[147.16226,-38.09232],[147.15912,-38.0928],[147.1544,-38.09456],[147.1522,-38.09472],[147.14277,-38.09412],[147.1302,-38.09213],[147.1126,-38.09148],[147.11228,-38.09145]],[[147.12735,-38.09311],[147.15283,-38.09583],[147.161,-38.09287],[147.16126,-38.09336],[147.15765,-38.09635],[147.1574,-38.09709],[147.1699,-38.10082],[147.16195,-38.10137],[147.14874,-38.10132],[147.13868,-38.10615],[147.13994,-38.10472],[147.1456,-38.10073],[147.14057,-38.09961],[147.13585,-38.09951],[147.128,-38.09827],[147.11468,-38.0946],[147.11272,-38.09361],[147.12705,-38.09315],[147.12735,-38.09311]]]}},{"type":"Feature","properties":{"base":"RAAF Base East Sale","band":"30-35","bandMin":30},"geometry":{"type":"Polygon","coordinates":[[[147.161,-38.09287],[147.15283,-38.09583],[147.14151,-38.09491],[147.12957,-38.09312],[147.11272,-38.09361],[147.11468,-38.0946],[147.128,-38.09827],[147.13585,-38.09951],[147.14057,-38.09961],[147.1456,-38.10073],[147.13994,-38.10472],[147.13868,-38.10615],[147.14874,-38.10132],[147.16195,-38.10137],[147.1699,-38.10082],[147.1574,-38.09709],[147.15765,-38.09635],[147.16129,-38.09312],[147.161,-38.09287]],[[147.15534,-38.09581],[147.161,-38.09296],[147.15546,-38.09734],[147.15629,-38.09818],[147.16216,-38.09982],[147.15566,-38.1001],[147.15377,-38.10059],[147.14874,-38.10053],[147.13994,-38.10531],[147.14748,-38.10057],[147.14764,-38.10007],[147.139,-38.09869],[147.13585,-38.09888],[147.13397,-38.09821],[147.12831,-38.09747],[147.12013,-38.0946],[147.12894,-38.09392],[147.15126,-38.09664],[147.15346,-38.09659],[147.15527,-38.09585],[147.15534,-38.09581]]]}},{"type":"Feature","properties":{"base":"RAAF Base East Sale","band":"35-40","bandMin":35},"geometry":{"type":"Polygon","coordinates":[[[147.161,-38.09296],[147.15283,-38.09667],[147.12925,-38.09394],[147.12013,-38.0946],[147.12831,-38.09747],[147.13397,-38.09821],[147.13585,-38.09888],[147.139,-38.09869],[147.14764,-38.10007],[147.14748,-38.10057],[147.13994,-38.10531],[147.14874,-38.10053],[147.16195,-38.10006],[147.16175,-38.09957],[147.15629,-38.09818],[147.15546,-38.09734],[147.16119,-38.09312],[147.161,-38.09296]],[[147.16063,-38.09336],[147.16108,-38.09312],[147.16069,-38.09339],[147.16063,-38.09336]]]}},{"type":"Feature","properties":{"base":"RAAF Base East Sale","band":"35-40","bandMin":35},"geometry":{"type":"Polygon","coordinates":[[[147.13916,-38.10578],[147.139,-38.10567],[147.13884,-38.10578],[147.139,-38.1059],[147.13916,-38.10578]]]}},{"type":"Feature","properties":{"base":"RAAF Base East Sale","band":"40+","bandMin":40},"geometry":{"type":"Polygon","coordinates":[[[147.16072,-38.09336],[147.16108,-38.09312],[147.16069,-38.09339],[147.16072,-38.09336]]]}},{"type":"Feature","properties":{"base":"RAAF Base East Sale","band":"40+","bandMin":40},"geometry":{"type":"Polygon","coordinates":[[[147.15425,-38.09734],[147.15992,-38.09386],[147.15251,-38.09734],[147.12894,-38.09453],[147.12768,-38.09461],[147.12685,-38.0956],[147.12768,-38.09668],[147.1346,-38.09764],[147.13585,-38.09845],[147.13711,-38.09796],[147.139,-38.09808],[147.14814,-38.09933],[147.14937,-38.09987],[147.15422,-38.09982],[147.15523,-38.09908],[147.15415,-38.09759],[147.15425,-38.09734]]]}},{"type":"Feature","properties":{"base":"RAAF Base East Sale","band":"40+","bandMin":40},"geometry":{"type":"Polygon","coordinates":[[[147.14687,-38.10131],[147.14737,-38.10107],[147.14686,-38.10133],[147.14687,-38.10131]]]}},{"type":"Feature","properties":{"base":"RAAF Base East Sale","band":"40+","bandMin":40},"geometry":{"type":"Polygon","coordinates":[[[147.14613,-38.10181],[147.14591,-38.10165],[147.1457,-38.10181],[147.14591,-38.10197],[147.14613,-38.10181]]]}},{"type":"Feature","properties":{"base":"RAAF Base East Sale","band":"40+","bandMin":40},"geometry":{"type":"Polygon","coordinates":[[[147.14475,-38.10256],[147.14504,-38.10231],[147.14466,-38.10262],[147.14475,-38.10256]]]}},{"type":"Feature","properties":{"base":"RAAF Base East Sale","band":"40+","bandMin":40},"geometry":{"type":"Polygon","coordinates":[[[147.14387,-38.10305],[147.14371,-38.10295],[147.14357,-38.10305],[147.14371,-38.10316],[147.14387,-38.10305]]]}},{"type":"Feature","properties":{"base":"RAAF Base East Sale","band":"40+","bandMin":40},"geometry":{"type":"Polygon","coordinates":[[[147.14265,-38.1038],[147.14245,-38.10365],[147.14226,-38.1038],[147.14245,-38.10394],[147.14265,-38.1038]]]}},{"type":"Feature","properties":{"base":"RAAF Base East Sale","band":"40+","bandMin":40},"geometry":{"type":"Polygon","coordinates":[[[147.14128,-38.10454],[147.14158,-38.10429],[147.1412,-38.1046],[147.14128,-38.10454]]]}},{"type":"Feature","properties":{"base":"RAAF Base East Sale","band":"40+","bandMin":40},"geometry":{"type":"Polygon","coordinates":[[[147.14041,-38.10504],[147.14025,-38.10494],[147.14012,-38.10504],[147.14025,-38.10514],[147.14041,-38.10504]]]}}]}