{"type":"FeatureCollection","name":"RAAF Base Amberley ANEF (Defence)","attribution":"Department of Defence, Defence Airfields ANEF, CC BY 3.0 AU (data.gov.au)","features":[{"type":"Feature","properties":{"base":"RAAF Base Amberley","band":"15-20","bandMin":15},"geometry":{"type":"Polygon","coordinates":[[[152.6725,-27.50992],[152.66867,-27.5032],[152.66695,-27.50117],[152.65436,-27.49444],[152.65187,-27.49347],[152.6505,-27.49387],[152.64626,-27.50139],[152.64431,-27.50911],[152.64875,-27.52307],[152.64957,-27.52705],[152.64978,-27.53029],[152.64906,-27.53302],[152.64861,-27.53951],[152.64762,-27.54099],[152.64008,-27.54551],[152.63789,-27.54893],[152.6376,-27.55062],[152.63909,-27.5549],[152.64717,-27.56436],[152.65146,-27.57236],[152.65169,-27.57759],[152.64916,-27.58679],[152.64921,-27.5943],[152.65614,-27.61461],[152.65756,-27.62021],[152.66145,-27.63063],[152.66299,-27.63736],[152.66714,-27.6455],[152.66941,-27.65256],[152.66977,-27.65654],[152.66942,-27.66849],[152.67073,-27.67305],[152.6707,-27.67845],[152.66874,-27.6884],[152.66809,-27.7123],[152.66734,-27.71628],[152.66365,-27.72846],[152.66374,-27.73419],[152.66477,-27.73619],[152.6668,-27.73818],[152.67123,-27.74052],[152.68017,-27.74204],[152.68577,-27.74187],[152.70481,-27.73593],[152.71154,-27.73204],[152.71961,-27.72596],[152.72499,-27.72273],[152.7289,-27.72151],[152.7317,-27.72199],[152.73617,-27.72646],[152.73818,-27.73037],[152.73907,-27.73336],[152.73954,-27.73734],[152.73793,-27.74754],[152.73817,-27.74945],[152.73947,-27.75054],[152.74282,-27.75161],[152.74451,-27.75478],[152.74438,-27.75776],[152.74263,-27.76324],[152.73632,-27.77443],[152.73655,-27.77522],[152.73773,-27.77566],[152.74109,-27.77534],[152.74949,-27.77232],[152.75308,-27.77056],[152.75492,-27.76904],[152.75734,-27.76607],[152.76007,-27.76128],[152.76415,-27.75083],[152.76469,-27.74386],[152.7645,-27.73639],[152.76249,-27.72394],[152.7599,-27.71647],[152.75563,-27.70899],[152.75343,-27.70028],[152.7537,-27.69878],[152.75589,-27.6958],[152.75499,-27.69368],[152.75536,-27.69157],[152.7549,-27.68908],[152.75842,-27.6851],[152.76037,-27.68137],[152.76066,-27.68033],[152.76031,-27.67764],[152.76142,-27.67538],[152.76283,-27.67402],[152.76227,-27.67017],[152.76456,-27.66669],[152.76509,-27.66307],[152.76349,-27.65524],[152.75859,-27.64079],[152.7563,-27.63183],[152.75193,-27.62386],[152.74805,-27.6109],[152.74248,-27.60293],[152.73687,-27.5913],[152.73001,-27.58],[152.72815,-27.57587],[152.72759,-27.57522],[152.72536,-27.57436],[152.72201,-27.57086],[152.71304,-27.56553],[152.71024,-27.56254],[152.71011,-27.56154],[152.71079,-27.56005],[152.71028,-27.55905],[152.70308,-27.55506],[152.69527,-27.54634],[152.68748,-27.53587],[152.68039,-27.52432],[152.67288,-27.51061],[152.6725,-27.50992]],[[152.66728,-27.58455],[152.66675,-27.58385],[152.67011,-27.57987],[152.67041,-27.57788],[152.66984,-27.57589],[152.66721,-27.5729],[152.66845,-27.57014],[152.66845,-27.56864],[152.66585,-27.56258],[152.66367,-27.55596],[152.66286,-27.54825],[152.66108,-27.53978],[152.6615,-27.5307],[152.66043,-27.52509],[152.65875,-27.5211],[152.65854,-27.51313],[152.65963,-27.51065],[152.66075,-27.51018],[152.66242,-27.51069],[152.66454,-27.51284],[152.67097,-27.52412],[152.67877,-27.53608],[152.69218,-27.55462],[152.6941,-27.55802],[152.69823,-27.56152],[152.69875,-27.565],[152.70023,-27.56772],[152.70191,-27.56923],[152.70585,-27.57074],[152.70459,-27.57373],[152.70524,-27.57641],[152.7069,-27.57896],[152.71033,-27.58146],[152.70985,-27.58444],[152.71038,-27.58644],[152.7121,-27.58934],[152.7146,-27.59192],[152.71722,-27.5969],[152.72751,-27.6083],[152.73197,-27.61227],[152.7342,-27.61279],[152.73511,-27.61396],[152.73531,-27.61935],[152.73459,-27.62183],[152.7346,-27.62408],[152.73715,-27.62698],[152.73707,-27.63157],[152.7413,-27.63578],[152.74238,-27.63785],[152.74175,-27.63902],[152.74247,-27.64136],[152.74259,-27.64574],[152.74456,-27.66267],[152.74443,-27.66765],[152.74504,-27.67039],[152.74417,-27.67436],[152.745,-27.67697],[152.74381,-27.67947],[152.74369,-27.68109],[152.74412,-27.68458],[152.74498,-27.68697],[152.74478,-27.68956],[152.74527,-27.69255],[152.74686,-27.69844],[152.74851,-27.70251],[152.75734,-27.71945],[152.76022,-27.73041],[152.76116,-27.74023],[152.761,-27.7451],[152.76024,-27.74994],[152.7568,-27.75631],[152.75456,-27.75828],[152.75288,-27.75812],[152.75199,-27.75678],[152.75116,-27.75205],[152.75188,-27.74832],[152.75176,-27.74433],[152.74957,-27.73743],[152.74673,-27.73215],[152.74556,-27.72814],[152.74336,-27.7237],[152.73629,-27.71195],[152.73286,-27.70769],[152.73035,-27.70636],[152.72762,-27.70687],[152.71718,-27.71223],[152.70934,-27.71503],[152.70704,-27.71543],[152.70399,-27.71494],[152.7004,-27.71282],[152.69617,-27.70639],[152.69323,-27.69764],[152.68955,-27.6765],[152.68657,-27.67075],[152.68096,-27.66601],[152.67901,-27.66279],[152.68084,-27.65781],[152.68327,-27.65458],[152.6846,-27.6516],[152.68535,-27.64886],[152.685,-27.64587],[152.68326,-27.64243],[152.67743,-27.6385],[152.67401,-27.6334],[152.6742,-27.63266],[152.67326,-27.62967],[152.67308,-27.62486],[152.67022,-27.61946],[152.67042,-27.61572],[152.66955,-27.61074],[152.66949,-27.60593],[152.67249,-27.59755],[152.67222,-27.59651],[152.6711,-27.59559],[152.67097,-27.59456],[152.67385,-27.59034],[152.67415,-27.5886],[152.67336,-27.58671],[152.67184,-27.58535],[152.6675,-27.58457],[152.66728,-27.58455]]]}},{"type":"Feature","properties":{"base":"RAAF Base Amberley","band":"20-25","bandMin":20},"geometry":{"type":"Polygon","coordinates":[[[152.68932,-27.55104],[152.67097,-27.52412],[152.66454,-27.51284],[152.66186,-27.51032],[152.65981,-27.51047],[152.65855,-27.51288],[152.65873,-27.52085],[152.66043,-27.52509],[152.6615,-27.5307],[152.66112,-27.54002],[152.66286,-27.54825],[152.66367,-27.55596],[152.66585,-27.56258],[152.66845,-27.56864],[152.66845,-27.57014],[152.66721,-27.5729],[152.66984,-27.57589],[152.67041,-27.57788],[152.67011,-27.57987],[152.66668,-27.5841],[152.67184,-27.58535],[152.67336,-27.58671],[152.67415,-27.5886],[152.67385,-27.59034],[152.67097,-27.59456],[152.6711,-27.59559],[152.67222,-27.59651],[152.67249,-27.59755],[152.66949,-27.60576],[152.66955,-27.61074],[152.67042,-27.61572],[152.67022,-27.61946],[152.67308,-27.62486],[152.67329,-27.62992],[152.67436,-27.63411],[152.67743,-27.6385],[152.68343,-27.64263],[152.68493,-27.64553],[152.68533,-27.64836],[152.68421,-27.65259],[152.68084,-27.65781],[152.67912,-27.66179],[152.67908,-27.66304],[152.68096,-27.66601],[152.68657,-27.67075],[152.68876,-27.67451],[152.69012,-27.67849],[152.69298,-27.69642],[152.69438,-27.70193],[152.69723,-27.70838],[152.7004,-27.71282],[152.70445,-27.71511],[152.70851,-27.71527],[152.71718,-27.71223],[152.72669,-27.70723],[152.72978,-27.70633],[152.7323,-27.70722],[152.73509,-27.7102],[152.74381,-27.72449],[152.74556,-27.72814],[152.74673,-27.73215],[152.74966,-27.73764],[152.75176,-27.74433],[152.75188,-27.74832],[152.75116,-27.75205],[152.75193,-27.75653],[152.75288,-27.75812],[152.75429,-27.75838],[152.7568,-27.75631],[152.76024,-27.74994],[152.761,-27.7451],[152.76116,-27.74023],[152.76022,-27.73041],[152.75734,-27.71945],[152.74851,-27.70251],[152.74686,-27.69844],[152.74527,-27.69255],[152.74478,-27.68956],[152.74498,-27.68697],[152.74412,-27.68458],[152.74369,-27.68109],[152.74381,-27.67947],[152.745,-27.67697],[152.74417,-27.67436],[152.74504,-27.67039],[152.74443,-27.66765],[152.74456,-27.66267],[152.74259,-27.64574],[152.74247,-27.64136],[152.74175,-27.63902],[152.74238,-27.63785],[152.7413,-27.63578],[152.73707,-27.63157],[152.73715,-27.62698],[152.7346,-27.62408],[152.73459,-27.62183],[152.73531,-27.61935],[152.73511,-27.61396],[152.7342,-27.61279],[152.73197,-27.61227],[152.72751,-27.6083],[152.71722,-27.5969],[152.7146,-27.59192],[152.7121,-27.58934],[152.71038,-27.58644],[152.70985,-27.58444],[152.71033,-27.58146],[152.7069,-27.57896],[152.70524,-27.57641],[152.70459,-27.57373],[152.70585,-27.57074],[152.70218,-27.56937],[152.70046,-27.56799],[152.69875,-27.565],[152.69823,-27.56152],[152.69439,-27.5584],[152.69218,-27.55462],[152.68967,-27.5515],[152.68932,-27.55104]],[[152.68113,-27.58424],[152.68036,-27.58264],[152.67969,-27.5784],[152.6776,-27.57379],[152.67453,-27.5632],[152.67449,-27.56022],[152.67548,-27.55798],[152.67591,-27.55499],[152.67682,-27.55252],[152.67849,-27.5514],[152.69164,-27.56499],[152.69489,-27.57147],[152.69794,-27.57446],[152.69936,-27.57847],[152.70363,-27.58343],[152.7045,-27.58692],[152.708,-27.59288],[152.71188,-27.60208],[152.71522,-27.60651],[152.72466,-27.61689],[152.72641,-27.6263],[152.72909,-27.63178],[152.72952,-27.63427],[152.73361,-27.64075],[152.73599,-27.65668],[152.73601,-27.66963],[152.73544,-27.67461],[152.73766,-27.68668],[152.75498,-27.71995],[152.75706,-27.72767],[152.75719,-27.73762],[152.75656,-27.73896],[152.75537,-27.73837],[152.74537,-27.71346],[152.73791,-27.69908],[152.73653,-27.69776],[152.73483,-27.69762],[152.73334,-27.6967],[152.72898,-27.69111],[152.72535,-27.69039],[152.71992,-27.69171],[152.71804,-27.69166],[152.71303,-27.68882],[152.70762,-27.67953],[152.70091,-27.67078],[152.69649,-27.66388],[152.69517,-27.66049],[152.6953,-27.65511],[152.69456,-27.65311],[152.69584,-27.64764],[152.69597,-27.6431],[152.69538,-27.64067],[152.69448,-27.63917],[152.68644,-27.63106],[152.68557,-27.62945],[152.68522,-27.62646],[152.68403,-27.62344],[152.68275,-27.62172],[152.67743,-27.61699],[152.67544,-27.61175],[152.67528,-27.60702],[152.68254,-27.59434],[152.68241,-27.59185],[152.68293,-27.58887],[152.68135,-27.5846],[152.68113,-27.58424]]]}},{"type":"Feature","properties":{"base":"RAAF Base Amberley","band":"25-30","bandMin":25},"geometry":{"type":"Polygon","coordinates":[[[152.69936,-27.57847],[152.69794,-27.57446],[152.69489,-27.57147],[152.69164,-27.56499],[152.68629,-27.55911],[152.68109,-27.55435],[152.67905,-27.5516],[152.67849,-27.5514],[152.67708,-27.55226],[152.67453,-27.55997],[152.67455,-27.56346],[152.6776,-27.57379],[152.67984,-27.5789],[152.68044,-27.58289],[152.68225,-27.58637],[152.68297,-27.58936],[152.68221,-27.59534],[152.6783,-27.6013],[152.67519,-27.60727],[152.67544,-27.61175],[152.67743,-27.61699],[152.68275,-27.62172],[152.68403,-27.62344],[152.68522,-27.62646],[152.68557,-27.62945],[152.68644,-27.63106],[152.69448,-27.63917],[152.69538,-27.64067],[152.69597,-27.6431],[152.69584,-27.64764],[152.69456,-27.65311],[152.6953,-27.65511],[152.69517,-27.66049],[152.6961,-27.66304],[152.70091,-27.67078],[152.70762,-27.67953],[152.71303,-27.68882],[152.71804,-27.69166],[152.71992,-27.69171],[152.72535,-27.69039],[152.72898,-27.69111],[152.73334,-27.6967],[152.73483,-27.69762],[152.73653,-27.69776],[152.73791,-27.69908],[152.74537,-27.71346],[152.75537,-27.73837],[152.75656,-27.73896],[152.75719,-27.73762],[152.75706,-27.72767],[152.75498,-27.71995],[152.73868,-27.68922],[152.73756,-27.68623],[152.73544,-27.67461],[152.73601,-27.66963],[152.73599,-27.65668],[152.7336,-27.64074],[152.72952,-27.63427],[152.72909,-27.63178],[152.72641,-27.6263],[152.72517,-27.61858],[152.72438,-27.61634],[152.71522,-27.60651],[152.71188,-27.60208],[152.708,-27.59288],[152.7045,-27.58692],[152.70363,-27.58343],[152.69965,-27.57889],[152.69936,-27.57847]],[[152.72839,-27.67786],[152.72455,-27.67523],[152.71616,-27.67396],[152.70416,-27.66673],[152.70162,-27.6606],[152.70173,-27.65885],[152.70319,-27.65513],[152.70349,-27.65189],[152.70259,-27.64815],[152.7024,-27.64417],[152.7007,-27.63849],[152.69782,-27.63371],[152.69331,-27.62772],[152.69223,-27.62174],[152.69131,-27.61956],[152.68948,-27.61825],[152.68192,-27.61538],[152.67969,-27.61226],[152.67892,-27.60877],[152.68106,-27.60479],[152.68282,-27.60197],[152.68728,-27.59833],[152.68863,-27.59585],[152.68811,-27.59087],[152.68526,-27.5814],[152.68517,-27.57966],[152.68568,-27.57899],[152.68847,-27.57898],[152.69206,-27.58192],[152.69257,-27.58241],[152.69312,-27.58491],[152.69404,-27.58613],[152.69738,-27.58857],[152.70017,-27.59138],[152.7033,-27.59663],[152.70546,-27.59892],[152.70979,-27.60934],[152.7152,-27.61462],[152.71877,-27.61911],[152.72217,-27.63102],[152.72798,-27.64273],[152.73094,-27.65643],[152.73083,-27.6607],[152.72927,-27.66962],[152.72934,-27.67662],[152.72901,-27.67762],[152.72845,-27.67788],[152.72839,-27.67786]]]}},{"type":"Feature","properties":{"base":"RAAF Base Amberley","band":"30-35","bandMin":30},"geometry":{"type":"Polygon","coordinates":[[[152.74829,-27.71102],[152.74699,-27.71147],[152.74939,-27.71844],[152.75128,-27.72211],[152.75296,-27.72366],[152.75331,-27.72169],[152.75264,-27.71895],[152.74834,-27.71122],[152.74829,-27.71102]]]}},{"type":"Feature","properties":{"base":"RAAF Base Amberley","band":"30-35","bandMin":30},"geometry":{"type":"Polygon","coordinates":[[[152.70287,-27.59588],[152.70017,-27.59138],[152.69348,-27.58548],[152.69233,-27.58217],[152.68847,-27.57898],[152.68707,-27.57871],[152.6854,-27.57914],[152.6853,-27.58165],[152.68811,-27.59087],[152.68863,-27.59585],[152.68682,-27.59883],[152.68221,-27.6028],[152.67892,-27.60877],[152.6793,-27.61126],[152.68166,-27.61521],[152.68948,-27.61825],[152.69131,-27.61956],[152.69223,-27.62174],[152.69331,-27.62772],[152.69782,-27.63371],[152.7007,-27.63849],[152.7024,-27.64417],[152.70259,-27.64815],[152.70349,-27.65189],[152.70319,-27.65513],[152.70173,-27.65885],[152.70162,-27.6606],[152.70416,-27.66673],[152.71616,-27.67396],[152.72455,-27.67523],[152.7279,-27.67774],[152.72873,-27.67782],[152.72934,-27.67662],[152.72927,-27.66962],[152.73101,-27.65767],[152.72798,-27.64273],[152.72217,-27.63102],[152.71852,-27.61856],[152.7152,-27.61462],[152.70979,-27.60934],[152.70556,-27.59912],[152.70295,-27.59604],[152.70287,-27.59588]],[[152.72038,-27.66641],[152.71562,-27.66542],[152.71337,-27.66312],[152.71192,-27.65763],[152.71216,-27.65539],[152.70787,-27.64941],[152.70566,-27.64268],[152.69748,-27.62624],[152.6971,-27.62076],[152.69774,-27.61877],[152.6991,-27.61678],[152.69808,-27.61429],[152.69648,-27.61252],[152.69239,-27.61174],[152.68715,-27.60929],[152.68599,-27.60779],[152.68606,-27.6068],[152.6871,-27.6053],[152.69262,-27.60087],[152.69348,-27.59661],[152.69401,-27.59601],[152.69513,-27.59627],[152.70221,-27.60254],[152.70626,-27.61234],[152.71435,-27.61934],[152.7215,-27.63649],[152.72162,-27.63873],[152.72427,-27.64397],[152.72477,-27.6482],[152.72421,-27.65293],[152.72641,-27.65667],[152.72481,-27.66612],[152.72429,-27.66656],[152.72065,-27.66641],[152.72038,-27.66641]]]}},{"type":"Feature","properties":{"base":"RAAF Base Amberley","band":"35-40","bandMin":35},"geometry":{"type":"Polygon","coordinates":[[[152.70301,-27.60406],[152.70237,-27.60274],[152.70015,-27.60057],[152.69513,-27.59627],[152.69401,-27.59601],[152.69348,-27.59661],[152.69262,-27.60087],[152.6871,-27.6053],[152.68606,-27.6068],[152.68599,-27.60779],[152.68715,-27.60929],[152.69239,-27.61174],[152.69648,-27.61252],[152.69834,-27.61479],[152.69908,-27.61703],[152.69719,-27.62026],[152.6972,-27.62549],[152.70566,-27.64268],[152.70787,-27.64941],[152.71216,-27.65539],[152.71192,-27.65763],[152.71367,-27.66361],[152.71477,-27.66489],[152.71618,-27.66561],[152.71954,-27.66635],[152.72429,-27.66656],[152.72496,-27.66562],[152.72641,-27.65667],[152.72421,-27.65293],[152.72477,-27.6482],[152.72419,-27.64372],[152.72181,-27.63923],[152.7215,-27.63649],[152.71942,-27.63226],[152.71463,-27.6198],[152.71128,-27.61633],[152.70768,-27.61392],[152.70626,-27.61234],[152.70471,-27.60933],[152.70305,-27.60415],[152.70301,-27.60406]],[[152.70792,-27.64443],[152.70859,-27.64393],[152.70856,-27.64319],[152.70575,-27.6382],[152.69985,-27.6245],[152.70015,-27.62077],[152.702,-27.61878],[152.7017,-27.61704],[152.69928,-27.61196],[152.69592,-27.60906],[152.69484,-27.60632],[152.69501,-27.60557],[152.69734,-27.60414],[152.69954,-27.6051],[152.70102,-27.60673],[152.70235,-27.61157],[152.70485,-27.61657],[152.70569,-27.61715],[152.70848,-27.61763],[152.71179,-27.62029],[152.71894,-27.63723],[152.71961,-27.6363],[152.72063,-27.63674],[152.71897,-27.63798],[152.71946,-27.64022],[152.7218,-27.64496],[152.72176,-27.64844],[152.72106,-27.64969],[152.72014,-27.65023],[152.71992,-27.65118],[152.72042,-27.65366],[152.72183,-27.65666],[152.72167,-27.65915],[152.72095,-27.65925],[152.72023,-27.65859],[152.71747,-27.65316],[152.71622,-27.65209],[152.71426,-27.65191],[152.71259,-27.65095],[152.71058,-27.64867],[152.70903,-27.64443],[152.70786,-27.64467],[152.70792,-27.64443]]]}},{"type":"Feature","properties":{"base":"RAAF Base Amberley","band":"40+","bandMin":40},"geometry":{"type":"Polygon","coordinates":[[[152.70569,-27.61715],[152.70396,-27.6153],[152.70209,-27.61081],[152.70137,-27.60733],[152.70013,-27.60561],[152.69762,-27.60413],[152.69501,-27.60557],[152.69484,-27.60632],[152.69575,-27.60881],[152.699,-27.61156],[152.70178,-27.61726],[152.70191,-27.61903],[152.70075,-27.61977],[152.70001,-27.62126],[152.69985,-27.6245],[152.70575,-27.6382],[152.70856,-27.64319],[152.70859,-27.64393],[152.70786,-27.64467],[152.70903,-27.64443],[152.71058,-27.64867],[152.71259,-27.65095],[152.71426,-27.65191],[152.71622,-27.65209],[152.71747,-27.65316],[152.71867,-27.65491],[152.71992,-27.65815],[152.72067,-27.6591],[152.72151,-27.65928],[152.72198,-27.6574],[152.72028,-27.65323],[152.71993,-27.65093],[152.72176,-27.64844],[152.7218,-27.64496],[152.71946,-27.64022],[152.71897,-27.63798],[152.72063,-27.63674],[152.71961,-27.6363],[152.71894,-27.63723],[152.71179,-27.62029],[152.70834,-27.61755],[152.70597,-27.6172],[152.70569,-27.61715]]]}}]}